"SiteID"	"ID"	"PlaceName"	"NameVariants"	"TribeID"	"Tribe"	"FractionID"	"TribalFraction"	"Description"	"ExtraComments"	"SiloCount1853"	"SiloCount1854"	"SiloCount1884"	"Agha"	"Caïd"	"Cheikh"	"Chaouch"	"Sidi"	"Kadi"	"Bordj"	"AssemblyPlace"	"Dechera"	"Haouch"	"Mechta"	"Beylik"	"House"	"Gourbi"	"GourbiMulti"	"Farm"	"Garden"	"Djenan"	"WellCistern"	"TheshingFloors"	"Matmora"	"Mosque"	"Marabout"	"Cemetery"	"Market"	"Grange"	"HayStraw"	"MajorRoute"	"Path"	"Ruin"	"SmallDam"	"Fields"	"Vines"	"LemonTree"	"AlmondTree"	"OliveTree"	"FigTree"	"Terebinth"	"PomegranateTree"	"CarobTree"	"OakTree"	"ElmTree"	"PoplarTree"	"UndiffTree"	"Maquis"	"OtherPlants"	"Mountain"	"Hill"	"Plateau"	"Escarpment"	"Pass"	"Rock"	"DryHardGround"	"SandyArea"	"Cave"	"Wadi"	"Ravine"	"River"	"Stream"	"Spring"	"Fontaine"	"Depression"	"Plain"	"Prairie"	"Longitude"	"Latitude"	"LocQual"	"LonPlot"	"LatPlot"
163	163	"Aïn Beda"	"Aïn Beda"	11	"Rebaïas"	45	"Oulad Aataf"				19																																																													1								3.232666	35.997684
55	55	"Aïn Boussif"	"Aïn Boussif/Aïn Yousif"	6	"Oulad Allans/Oulad Alens/Oulad Alan"	22	"Oulad Abdelouahab/El Belida/Lebabda"	"entre une fontaine, une prairie et un rocher"		12	66																																																					1								1	1			1				3.142845	35.829478
44	44	"Aïn el Ahmer"	"Aïn el Ahmer/Aïn el Hamir"	6	"Oulad Alens/Oulad Allans"	21	"Oulad Chenef/Oulad Chenaf"	"sur la plaine/près de son haouch. nouvel emplacement"		2	12											1																																																		1			1					3.105161	35.95593
120	120	"Aïn el Behira"	"Aïn el Behira"	6	"Oulad Alan"	33	"Bel Ytess"				50																																																													1								3.378096	35.780562
167	167	"Aïn el Hedjar"	"Aïn el Hedjar/Aïn el Hhedjar"	11	"Rebaïa/Rebaïas"	46	"Oulad Si Mohamed/Oulad Sidi Mehemed"	"près de deux arbres, d'un source et d'un ravin"		50	20																																													1													1			1								3.169387	36.005445
57	57	"Aïn el Mesken"	"Aïn el Mesken"	6	"Oulad Allans"	22	"Oulad Abdelouahab"				20																																																													1								3.165094	35.856659
63	63	"Aïn Emaya"	"Aïn Emaya"	6	"Oulad Allans"	23	"Oulad Jabia"	"nouvel emplacement"			15																																																													1								3.138972	35.967863
197	197	"Aïn Sultan"	"Aïn Sultan/Aïn Selthan"	13	"Douaïres/Douair"	52	"Oulad Raab nal el Oued/Oulad Rehab"	"ouest rocher, nord jardin, est chemin, sud petit rocher"		88	40																		1												1																							1								1								2.954622	35.918002
58	58	"Aïn Kabla"	"Aïn Kabla"	6	"Oulad Allans"	22	"Oulad Abdelouahab"				25																																																													1								3.212288	35.822708
185	185	"Aïn Seïdan"	"Aïn Seïdan/Ain Saïdan"	13	"Douaïres/Douair"	51	"El Alalma/El Aallalema"	"ouest lieu appelé Cobra el Aoud, nord lieu appelé Afer Debir, est sables, sud montagne"		40	21																																																1													1								2.998305	36.036352
97	97	"Aïssa ben Aïssa"	"Aïssa ben Aïssa"	6	"Oulad Alan"	28	"Lebabda"				15																																																																					3.257651	35.925074
166	166	"Mel Gassem"	"Mel Gassem/El Megassem"	11	"Rebaïa/Rebaïas"	46	"Oulad Si Mohamed/Oulad Sidi Mehemed"	"nord ravin, sud chemin, ouest les gourbis d'Amed ben Sefti"		28	21															1	1														1																			1									1											3.213154	36.00153
52	52	"Beni Djkhedouch"	"Beni Djkhedouch/Beni Jekherouch"	6	"Oulad Alens/Oulad Allans"	21	"Oulad Chenef/Oulad Chenaf"	"au bas d'un rocher/nouvel emplacement"		87	24																																																					1																3.11353	35.937709
177	177	"Bir el Khenafis"	"Bir el Khenafis/Bir el Khouafi"	13	"Douaïres/Douair"	50	"Titry/Tittery"	"(Batia bou Beni Saïa) ouest puits, nord jardin, sud chemin"		65	71																		1		1										1																																							3.013302	35.948102
169	169	"Bira an Madan"	"Bira an Madan/Bir Madan"	12	"Sidi Ahmed ben Joucef/Oulad Si Ahmed ben Youssef"	47	"El Maâthma/El Maademas"	"ouest rocher, est ravin, nord montagne, sud chemin/toute la fraction ensilote sur le coteau est de Bir Madan"		84	57																				1										1																		1					1					1											3.066112	36.09767
22	22	"Birin"	"Birin"	3	"Oulad Mokhtar/Mouïadat Cheraga"	13	"Medablia"					300																																																																	3.283274	35.564549	"B"	3.283274	35.564549
160	160	"Bou Djedian"	"Bou Djedian"	11	"Rebaïas"	45	"Oulad Aataf"	"la maison de Ben Djedian"			70														1																																																							3.138477	36.023569
173	173	"Caadet Fiad Hallouf"	"Caadet Fiad Hallouf"	12	"Oulad Si Ahmed ben Youssef"	48	"Oulad Sidi el Khoidzer"				15																																																	1																				3.051928	36.101311
151	151	"Chaab"	"Chaab"	11	"Rebaïas"	42	"Oulad Ahmed"				120																																																	1									1											3.013933	35.969844
174	174	"Chaabat ben Hemani"	"Chaabat ben Hemani/Cheubet ben Amani"	12	"Oulad Si Ahmed ben Youssef/Sidi Ahmed ben Joucef"	48	"Oulad Sidi el Khoidzer/Zaouïa/Saary"	"ouest ravin, est ravin, sud montagne, nord petit montagne"		23	12																																																1										1											3.044954	36.102092
155	155	"Chaabat el Harmara"	"Chaabat el Harmara/Cheub Lamera"	11	"Rebaïas"	45	"Oulad Aataf"	"au nord de de l'endroit précédent/sud rocher, nord rocher, ouest source, est jardin El Hadj ben Jussef"		50	23																		1																													1						1					1			1								3.15819	35.973758
189	189	"Chaabet Abdallah"	"Chaabet Abdallah"	13	"Douair"	51	"El Aallalema"				39																																																										1											3.005744	36.026491
143	143	"Chabet el Derla"	"Chabet el Derla/Chabal Defela"	11	"Rebaïa/Rebaïas"	43	"Oulad Saal/Oulad Salay"	"au-dessus de la rivière Chabet el Derla, près d'un rocher"		85	50																																																					1					1	1										3.105554	35.986472
113	113	"Chaïb"	"Chaïb"	6	"Oulad Alan"	31	"Bedjama"				60																																																																					3.317386	35.821935
175	175	"Chebour"	"Chebour/Caadet el Achebour"	12	"Sidi Ahmed ben Joucef/Oulad Si Ahmed ben Youssef"	49	"Zaouïa/El Zoua"	"ouest ravin, est ravin, sud Graine, nord Messif-l Gnan"		57	90																																																										1											3.145219	36.105296
78	78	"chez le Cheikh"	"chez le Cheikh"	6	"Oulad Alan"	24	"Zerartta"				20				1																																																																	3.151273	35.8865
165	165	"Dar Ennems"	"Dar Ennems"	11	"Rebaïas"	45	"Oulad Aataf"	"chez Lekhreddin Bin Sekhreri/chez Brahim bin Aïach"			12														1																																																							3.152586	35.980535
27	27	"Dayat el Hamra"	"Dayat el Hamra"	4	"Oulad Sidi Aïssa El Ouerq"	15	"Zabala"					30																																																														1						2.494111	35.410111
24	24	"Dayat el Mita"	"Dayat el Mita"	4	"Oulad Sidi Aïssa El Ouerq"	14	"Oulad Sidi Slimane"					40																																																														1						2.436111	35.349111
157	157	"Debdeb"	"Debdeb/Debdab"	11	"Rebaïa/Rebaïas"	45	"Oulad Atta/Oulad Aataf"	"Au milieu des gourbis de Ben Couïder"		95	48															1	1																																						1															3.241497	35.997741
36	36	"Debdeb"	"Debdeb/à Debdab"	5	"Titteri"	17	"Oulad Atemen/Oulad Atman"	"près d'un chemin"		265	260																														1																								1															3.021814	35.867047
69	69	"El Mechta"	"El Mechta"	6	"Oulad Allans"	23	"Oulad Jabia"	"emplacement nouveau"			7												1																																																									3.162337	35.93833
41	41	"Dra el Abiad"	"Dra el Abiad/Dera Labiod"	5	"Titteri"	20	"El Mehedibah/Elmebadba"	"près d'une rivière"		108	80																																																	1										1										3.015174	35.786582
196	196	"Dra Labiode (ou Dra Roumel/Dra Remel)"	"Dra Labiode (ou Dra Roumel/Dra Remel)/Draa Remel"	13	"Douaïres/Douair"	52	"Oulad Raab nal el Oued/Oulad Rehab"	"Teraat ben el Moumen, ouest rivière, nord rivière, sud chemin de Djebana"		33	86																														1																			1										1										2.910461	35.933473
150	150	"Dra Oulad Moussa"	"Dra Oulad Moussa/Chaab Draa Moussa"	11	"Rebaïa/Rebaïas"	42	"Oulad Hamaïd/Oulad Ahmed"	"au sud ravin, au nord ravin"		290	150																																																	1									1											3.079543	35.96207
148	148	"Draa el Bida"	"Draa el Bida"	11	"Rebaïas"	42	"Oulad Ahmed"				25																																																	1																				3.059324	35.987763
192	192	"Draa el Metnan"	"Draa el Metnan"	13	"Douair"	51	"El Aallalema"				80																																																	1																				3.020988	35.998153
152	152	"Dra el Zouabi"	"Dra el Zouabi/Dra Zouabi"	11	"Rebaïa/Rebaïas"	42	"Oulad Hamaïd/Oulad Ahmed"	"dans la ferme"		22	12																	1																																1																				3.075992	35.942817
106	106	"Dera Errahim"	"Dera Errahim/Dra el Rehaïn"	6	"Oulad Alens/Oulad Alan"	29	"Taaziza/Thaaziz"	"près d'un grand rocher"		150	150																																																					1																3.251282	35.852301
103	103	"El Argoub"	"El Argoub/El Aagouba"	6	"Oulad Alens/Oulad Alan"	29	"Taaziza/Thaaziz"	"entre 2 rochers"		1	30																																																	1				1																3.346393	35.865264
28	28	"El Arich"	"El Arich"	4	"Oulad Sidi Aïssa El Ouerq"	16	"Oulad Betka"					20																																																																				2.510111	35.455111
32	32	"El Beda"	"El Beda/à el Beida"	5	"Titteri"	17	"Oulad Atemen/Oulad Atman"	"près d'un rocher"		12	15																																																					1																3.047386	35.900848
46	46	"El Berdja"	"El Berdja/El Berardjia"	6	"Oulad Alens/Oulad Allans"	21	"Oulad Chenef/Oulad Chenaf"	"entre 2 rochers"		31	30																																																					1																3.08009	35.904295
149	149	"El Chiba"	"El Chiba"	11	"Rebaïas"	42	"Oulad Ahmed"	"à la mechta d'Yhea bou Aïssa"			24												1																																																									3.089834	35.977391
53	53	"El Dalâ"	"El Dalâ"	6	"Oulad Allans"	21	"Oulad Chenaf"				30																																																																					3.096165	35.922926
48	48	"El Djebbassa"	"El Djebbassa"	6	"Oulad Allans"	21	"Oulad Chenaf"				10																																																																					3.128076	35.887814
56	56	"El Djouema"	"El Djouema/El Djouamê"	6	"Oulad Alens/Oulad Allans"	22	"Oulad Abdeloucheb/Oulad Abdelouahab"	"près d'une ferme"		14	13																	1						1																																														3.210844	35.865173
119	119	"El Faouar"	"El Faouar/Fouar"	6	"Oulad Alens/Oulad Alan"	33	"Oulad Belheites/Bel Ytess"	"près d'un jardin, au bas d'un Kef"		95	70																		1																																	1										1								3.370905	35.790516
164	164	"El Frache"	"El Ferech/Fel Fraiche/El Frach"	11	"Rebaïa"	45	"Oulad Atta/Oulad Aataf"	"dans une terre du Beylek/dans la ferme de Couïder ben Abdallah/au nord d'El Frach"		304	120													1				1																																																	2.98029	35.996889	"C"	2.98029	35.996889
73	73	"Gaadat"	"Gaadat"	6	"Oulad Alan"	24	"Zerartta"				15																																																		1																			3.168377	35.895497
13	13	"El Gara"	"El Gara"	1	"Rahman Gheraba"	6	"Oulad Dorid"					170																																																1																	2.861359	35.417983	"B"	2.861359	35.417983
59	59	"El Ghicha"	"El Ghicha"	6	"Oulad Allans"	22	"Oulad Abdelouahab"				63																																																																					3.156816	35.863918
122	122	"El Goufa"	"El Goufa/Gueffa"	6	"Oulad Alens/Oulad Alan"	33	"Oulad Belheites/Bel Ytess"	"dans un mechta"		45	50												1																																																									3.332926	35.760558
66	66	"El Hania"	"El Hania/El Hamia"	6	"Oulad Alens/Oulad Allans"	23	"Oulad Yahya/Oulad Jabia"	"au bas d'un rocher, près d'un mechta"		45	46												1																																									1				1												3.183824	35.95995
65	65	"El Hemiya"	"El Hemiya/El Hamia/El Hamïa"	6	"Oulad Alens/Oulad Allans"	23	"Oulad Yahya/Oulad Jabia/Taaziza"	"au bas d'un rocher/près d'un peuplier/sur une plaine"		56	30																																												1														1						1					3.198603	35.984987
64	64	"El Houamil"	"El Houamil"	6	"Oulad Allans"	23	"Oulad Jabia"	"nouvel emplacement"			10																																																																					3.239133	35.969155
179	179	"El Kehela"	"El Kehela"	13	"Douair"	50	"Tittery"				80																																																																					2.978566	35.922804
43	43	"El Kheneg"	"(El Kheneg)?/El Kheneg"	5	"Titteri"	20	"El Mehedibah/Elmebadba"	"près d'un jardin"		24	27																		1																																								1											3.042736	35.779354
14	14	"El Madour"	"El Madour"	2	"Rahman Cheraga"	7	"Oulad Mebarek and Oulad Saïdan"					600																																																																	2.917792	35.793793	"B"	2.917792	35.793793
54	54	"El Mechta"	"El Mechta"	6	"Oulad Allans/Oulad Alens"	21	"Oulad Chenaf/Oulad Abdeloucheb"	"nouvel emplacement/près d'un ruisseau"		74	15												1																																																1									3.101613	35.902512
80	80	"Meguil"	"Meguil"	6	"Oulad Alan"	25	"El Maaguif"				19																																																																					3.176195	35.822953
61	61	"El Safsafa"	"El Safsafa"	6	"Oulad Allans"	22	"Oulad Abdelouahab"				33																																												1																									3.117931	35.847982
33	33	"El Sed"	"à el Sed"	5	"Titteri"	17	"Oulad Atman"				30																																1																																					3.028467	35.872527
50	50	"Essenaa"	"Essenaa"	6	"Oulad Allans"	21	"Oulad Chenaf"	"nouvel emplacement"			25																																																																					3.08539	35.889023
51	51	"Fehima"	"Fehima/El Fahim"	6	"Oulad Alens/Oulad Allans"	21	"Oulad Chenef/Oulad Chenaf"	"au bas du Kef Lakhdar"		60	50																																																			1															3.278131	35.907735	"B"	3.278131	35.907735
75	75	"El Faïdj"	"El Faïdj"	6	"Oulad Alan"	24	"Zerartta"				16																																																				1																	3.15471	35.908992
138	138	"Fi Chaba"	"Fi Chaba/El Cheheba"	11	"Rebaïa/Rebaïas"	40	"Oulad Saala/Oulad Salah"	"à l'est source, au nord la rivière"		68	58																																																										1	1		1								3.195206	36.046665
45	45	"Gaad el Siah"	"Gaad el Siah/Gaada el Siah"	6	"Oulad Alens/Oulad Allans"	21	"Oulad Chenef/Oulad Chenaf"	"entre 2 rivières"		100	120																																																		1									1										3.11863	35.951532
79	79	"Gaada"	"Gaada"	6	"Oulad Alan"	25	"El Maaguif"				32																																																		1																			3.19731	35.822205
158	158	"Gaadet Oulad Ortman"	"Gaadet Oulad Ortman"	11	"Rebaïas"	45	"Oulad Aataf"				20																																																		1																			3.149483	36.014555
186	186	"Ghiran Hedid"	"Ghiran Hedid"	13	"Douair"	51	"El Aallalema"				24																																																								1													3.001743	36.036227
139	139	"Gouabi"	"Gouabi/El Khrouab"	11	"Rebaïa/Rebaïas"	40	"Oulad Saala/Oulad Salah"	"au milieu de la broussailles, près du ravin des sangliers, à l'est d'un montagne près du chemin des marches"		35	30																														1																1		1										1											3.151121	36.079982
76	76	"Guebela"	"Guebela"	6	"Oulad Alan"	24	"Zerartta"				24																																																																					3.190936	35.895228
49	49	"Guossin el Hamir"	"Guossin el Hamir"	6	"Oulad Allans"	21	"Oulad Chenaf"	"nouvel emplacement"			24																																																																					3.13837	35.923285
183	183	"Hemia Foda"	"Hemia Foda"	13	"Douair"	50	"Tittery"				50																																																																					3.028948	35.951111
34	34	"Harmela"	"à Harmela"	5	"Titteri"	17	"Oulad Atman"	"au nord du haouch de Ben Tahia"			20											1																																				1																						3.042752	35.877863
153	153	"Hazba"	"Hazba"	11	"Rebaïas"	42	"Oulad Ahmed"	"appartenant au Caïd des Rebaïas"			6			1																																																																		3.014365	35.970788
47	47	"Houfrat Chohra"	"Hafrer Chohra/Hafra Chahra"	6	"Oulad Alens/Oulad Allans"	21	"Oulad Chenef/Oulad Chenaf"	"près d'un jardin"		45	50																		1																																																			3.095264	35.948489
105	105	"Kef el Djelid"	"Kef el Djelid/Kaf Djelid"	6	"Oulad Alens/Oulad Alan"	29	"Taaziza/Thaaziz"	"au bas d'un rocher"		27	22																																																			1		1																3.294998	35.89133
133	133	"Khreng el Aarar"	"Khreng el Aarar"	9	"Sahari"	36	"Sahari"				200																																																										1											3.342856	35.466905
156	156	"Kerima"	"Kerima/Krimma"	11	"Rebaïas"	45	"Oulad Aataf"	"est jardin, sud Aïn, ouest rocher et Aïn, nord rocher"		105	150																		1																																			1								1								3.092189	36.04155
168	168	"Ksaïb"	"Ksaïb/Kessiba"	11	"Rebaïa/Rebaïas"	46	"Oulad Si Mohamed/Oulad Sidi Mehemed"	"près d'un marabout , à l'est d'un ravin, au nord du broussailes et un ravin"		65	40																								1																						1												1											3.206252	36.024983
23	23	"Labiod"	"Labiod"	3	"Oulad Mokhtar/Mouïadat Cheraga"	13	"Medablia"					130																																																																	3.355525	35.600191	"B"	3.355525	35.600191
87	87	"Medjelès"	"Medjelès"	6	"Oulad Alan"	27	"Oulad Sidi Amer"				24									1																																																												3.197933	35.692394
172	172	"Mechta el Kadim"	"Mechta el Kadim"	12	"Oulad Si Ahmed ben Youssef"	48	"Oulad Sidi el Khoidzer"				20												1																																																									3.029033	36.111452
100	100	"Mechta el Amri"	"Mechta el Amri"	6	"Oulad Alan"	29	"Thaaziz"				65												1																																																									3.322647	35.865685
40	40	"Mechter Lahmar"	"Mechter Lahmar/à Mechta el Ahmar"	5	"Titteri"	20	"El Mehedibah/Elmebadba"	"près d'un mechta"		60	50												1																																																									3.06303	35.805783
178	178	"Neumenia"	"Neumenia/Nuamania"	13	"Douaïres/Douair"	50	"Titry/Tittery"	"(Amed ben Belhout) ouest lieu appelé Fuama, nord chemin, est rivière, sud rivière"		59	57																														1																													1										3.058612	35.938168
109	109	"Om el Hhelalif"	"Om el Hhelalif"	6	"Oulad Alan"	30	"Oulad Khalifa"				50																																																																					3.316921	35.855155
128	128	"Oued el Aleg"	"Oued el Aleg"	9	"Sahari"	36	"Sahari"				131																																																									1												3.665409	35.491533
2	2	"Ras el Aïn"	"Ras el Aïn"	1	"Rahman Gheraba"	1	"Oulad Labiili"					300																																																1												1					2.880766	35.451204	"B"	2.880766	35.451204
131	131	"Ras Khreng el Terfa"	"Ras Khreng el Terfa"	9	"Sahari"	36	"Sahari"				126																																																	1																				3.472586	35.373651
191	191	"Redjeradj"	"Redjeradj"	13	"Douair"	51	"El Aallalema"				40																																																																					2.98069	36.016294
198	198	"Rheghba"	"Rheghba/Regeb/Regeb (?firdjen el Kef)/Regab"	13	"Douaïres/Douair"	52	"Oulad Raab nal el Oued/Oulad Raab nal el Regeb/Oulad Rehab Abdel Regab"	"ouest ravin, nord montagne, est ravin, sud chemin/(Abdallah ben el Allah) ouest chemin, nord chemin, est ravin, sud chemin/Bou Alli, ouest rocher, nord rocher, est ravin, sud chemin"		580	240																														1																		1				1	1					1											2.907985	35.928922
29	29	"Remila"	"Remila"	4	"Oulad Sidi Aïssa El Ouerq"	16	"Oulad Betka"					20																																																						1														2.527111	35.488111
190	190	"Rethel"	"Rethel"	13	"Douair"	51	"El Aallalema"				15																																																																					3.004406	36.002041
25	25	"Sed Lakhal"	"Sed Lakhal"	4	"Oulad Sidi Aïssa El Ouerq"	14	"Oulad Sidi Slimane"					40																															1																																					2.416111	35.327111
86	86	"Sed"	"Sed"	6	"Oulad Alan"	27	"Oulad Sidi Amer"				340																																1																																					3.170594	35.70238
181	181	"Selka Fiod el Mecheta"	"Selka Fiod el Mecheta"	13	"Douaïres/Douair"	50	"Titry/Tittery"	"nord chemin, sud chemin"		136	110												1																		1																											1												3.017856	35.947026
95	95	"Sidi Abdelkader"	"Sidi Abdelkader/Sidi Abdelhadri"	6	"Oulad Alens/Oulad Alan"	28	"El Belida/Lebabda"	"près d'une fontaine/Dans la ?maison de Sidi Abdelhadri"		109	70						1								1																																																1							3.225779	35.918437
129	129	"sous les terres de Salem"	"sous les terres de Salem"	9	"Sahari"	36	"Sahari"	"sous ses terres"			130																																	1																																				3.6411	35.418555
184	184	"Theniet el Rihh"	"Teniet Rìhè/Teniet el Rihh"	13	"Douaïres/Douair"	51	"El Alalma/El Aallalema"	"ouest chemin, nord montagne, est petite montagne, sud chemin d'Alefa"		105	80																														1																		1				1																	2.990427	36.030849
136	136	"Toumiat"	"Toumiat"	10	"Oulad Sidi Aïssa el Adab/el Ahhedab"	39	"Oulad Sidi Labah"				70																																																																					3.48367	35.250325
1	1	"Zoubia"	"Zoubia"	1	"Rahman Gheraba"	1	"Oulad Labiili"					500																																																																	2.895561	35.718674	"B"	2.895561	35.718674
154	154	"Zoudj an Kaïl"	"Zoudj an Kaïl/Zoudj Kehhil"	11	"Rebaïa/Rebaïas"	42	"Oulad Hamaïd/Oulad Ahmed"	"au frère du Caïd/appartenant au Caïd des Rebaïas"		6	6			1																																																																		3.064794	35.965725
37	37	"Debdeb (Tighaza?)"	"Debdeb (Tighaza?)/à Tighaza"	5	"Titteri"	18	"Oulad Debeb/Oulad Debab"	"entre la rivière et un mechta/dans Debdab"		186	174												1																																				1						1					1										3.013959	35.856605
144	144	"Dra el Kerma"	"Dra el Kerma/Rad el Kerma"	11	"Rebaïa/Rebaïas"	43	"Oulad Saal/Oulad Salay"	"près de la rivière appelé Chabet Allous, au-dessus d'un petit mamelon/à la mechta du Cadi di Messaoud/au sud de la mechta ?saisonnière?"		51	38							1					1																																					1										1										3.145535	35.984443
19	19	"Besbessi"	"Besbessi/El Besbessi/Besbassi"	3	"Oulad Mokhtar/Mouïadat Cheraga"	11	"Oulad Mokhtar/Mekhalif/Oulad Mokhtar/El Moyadets/Mouïdat"	"sur la plaine"		487	400	120																																																																	3.282471	35.616619	"B"	3.282471	35.616619
15	15	"Ferania"	"Ferania"	2	"Rahman Cheraga"	8	"Oulad Dilfoloh"					150																																																																	2.981352	35.650183	"B"	2.981352	35.650183
39	39	"El Gaada el Bida"	"El Gaada el Bida/à Gaada el Beda"	5	"Titteri"	20	"El Mehedibah/Elmebadba"	"près d'un mechta"		190	150												1																																						1																			3.035928	35.771373
6	6	"Dazel el Hadjel"	"Dazel el Hadjel"	1	"Rahman Gheraba"	4	"Oulad Aïfou"					240																																																																	2.782495	35.41447	"B"	2.782495	35.41447
30	30	"Kerked el Haouch (lower)"	"Kerked el Haouch (lower)/en son Haouch (inférieur)"	5	"Titteri"	17	"Oulad Atemen/Oulad Atman"	"près de la ferme du Bach Agha (celle du bas)/au sud et au nord du haouch"		76	30											1						1																																																				3.044939	35.907313
31	31	"Kerked el Haouch (upper)"	"Kerked el Haouch (upper)/au Haouch (supérieur)"	5	"Titteri"	17	"Oulad Atemen/Oulad Atman"	"près de la ferme du Bach Agha (celle du haut)/au sud de ce haouch"		6	20											1						1																																																				3.04564	35.887711
102	102	"El Mechta"	"El Mechta"	6	"Oulad Alan"	29	"Thaaziz"				30												1																																																									3.269074	35.851021
85	85	"El Faïdja"	"El Faïdja"	6	"Oulad Alan"	27	"Oulad Sidi Amer"				38																														1																						1																	3.130058	35.711876
12	12	"Ferah el Ouza"	"Ferah el Ouza"	1	"Rahman Gheraba"	6	"Oulad Dorid"					300																																																																	2.921321	35.694847	"B"	2.921321	35.694847
4	4	"Bougzizal"	"Bougzizal"	1	"Rahman Gheraba/Rahman Cheraga"	2	"Oulad Slemo/L. Beguiale Rezigat"					700																																																																	2.920023	35.760274	"B"	2.920023	35.760274
9	9	"Habbil"	"Habbil"	1	"Rahman Gheraba"	5	"Nouïral"					160																																																																	2.955892	35.722296	"B"	2.955892	35.722296
35	35	"Ras el Aïn Harmela"	"à Ras el Aïn Harmela/Aïn Harmela"	5	"Titteri"	17	"Oulad Atman/Oulad Debeb"	"près d'un ruisseau"		12	10																																															1		1										1	1	1								3.040403	35.871584
5	5	"Knof Eddiba"	"Knof Eddiba"	1	"Rahman Gheraba"	3	"Oulad Mansour"					260																																																				1													2.840912	35.301357	"B"	2.840912	35.301357
17	17	"Ben Nahr"	"Ben Nahr"	2	"Rahman Cheraga"	9	"El Asouan"					500																																																										1							3.080236	35.493403	"B"	3.080236	35.493403
3	3	"Oulad Slemo Mader"	"Oulad Slemo Mader"	1	"Rahman Gheraba"	2	"Oulad Slemo"					450																																																																	2.917792	35.793793	"B"	2.917792	35.793793
10	10	"Oulad Si Yacoub"	"Oulad Si Yacoub"	1	"Rahman Gheraba"	5	"Nouïral"					130					1																																																												2.743441	35.22444	"B"	2.743441	35.22444
16	16	"M'nezbel"	"M'nezbel"	2	"Rahman Cheraga"	8	"Oulad Dilfoloh"					600																																																																	3.056428	35.576517	"B"	3.056428	35.576517
7	7	"Bouchiga"	"Bouchiga"	1	"Rahman Gheraba"	4	"Oulad Aïfou"					180																																																																	2.728878	35.370796	"B"	2.728878	35.370796
8	8	"M'Hardja"	"M'Hardja"	1	"Rahman Gheraba"	5	"Nouïral"					150																																																																	2.837565	35.138561	"B"	2.837565	35.138561
11	11	"Lokhli"	"Lokhli"	1	"Rahman Gheraba"	5	"Nouïral"					90																																																																	2.845245	35.381534	"B"	2.845245	35.381534
20	20	"Medablia"	"Medablia"	3	"Oulad Mokhtar/Mouïadat Cheraga"	11	"Mekhalif"					300																																																																	3.350943	35.56005	"B"	3.350943	35.56005
21	21	"Abaziz"	"Abaziz"	3	"Oulad Mokhtar/Mouïadat Cheraga"	11	"Mekhalif"					110																																																																	3.398277	35.617497	"B"	3.398277	35.617497
26	26	"Zebark Bou Touïl"	"Zebark Bou Touïl"	4	"Oulad Sidi Aïssa El Ouerq"	15	"Zabala"					50																																																																				2.480111	35.390111
38	38	"El Gromat"	"El Gromat/à el Guerimat"	5	"Titteri"	19	"Oulad Seid/Oulad Saïd"	"au pied d'une montagne"		63	76																																																																					3.024334	35.818824
42	42	"El Madjen"	"El Madjen/El Medjen"	5	"Titteri"	20	"El Mehedibah/Elmebadba"	"près d'un mechta"		21	20												1																																																									3.057598	35.777889
60	60	"Enneha"	"Enneha"	6	"Oulad Allans"	22	"Oulad Abdelouahab"				24																																																																					3.205139	35.843117
62	62	"Bouaben"	"Bouaben/Bouaban"	6	"Oulad Alens/Oulad Allans"	23	"Oulad Yahya/Oulad Jabia"	"entre 2 ruisseaux"		180	50																																																												1									3.240094	35.976223
67	67	"Dehendi"	"Dehendi/Dahenda"	6	"Oulad Alens/Oulad Allans"	23	"Oulad Yahya/Oulad Jabia"	"près d'un cimetière"		56	32																									1																																												3.237937	35.967878
68	68	"Dellia"	"Dellia/Eddalia"	6	"Oulad Alens/Oulad Allans"	23	"Oulad Yahya/Oulad Jabia"	"près d'un mechta"		74	87												1																																																									3.183324	35.923596
70	70	"El Maas Ker"	"El Maas Ker"	6	"Oulad Allans"	23	"Oulad Jabia"				13																																																																					3.177835	35.983981
71	71	"Tirghan"	"Tirghan/Tirgal Seghir"	6	"Oulad Alens/Oulad Alan"	24	"Serarta/Zerartta"	"au milieu de Tirghan, près de Dia"		14	35																																																																					3.188413	35.899658
72	72	"Dia"	"Dia/Diaz"	6	"Oulad Alens/Oulad Alan"	24	"Serarta/Zerartta/El Maaguif"	"dans un mechta/près d'un ruisseau"		54	21												1																																																1									3.158235	35.883546
74	74	"El Merim"	"El Merim"	6	"Oulad Alan"	24	"Zerartta"				20																																																																					3.164817	35.903576
77	77	"Dzouab"	"Dzouab"	6	"Oulad Alan"	24	"Zerartta"				10																																																																					3.146907	35.893119
81	81	"Baaban"	"Baaban"	6	"Oulad Alan"	25	"El Maaguif"				10																																																																					3.156695	35.833769
82	82	"Negueriya"	"Negueriya/El Negueri"	6	"Oulad Alens/Oulad Alan"	25	"El Maaguif"	"près d'un rocher"		50	20																																																					1																3.166518	35.819052
83	83	"Terfaïa"	"Terfaïa"	6	"Oulad Alan"	26	"Oulad Sidi A.Amens"				200																																																																					3.196625	35.801597
84	84	"Dema"	"Dema"	6	"Oulad Alan"	27	"Oulad Sidi Amer"				250																																																																					3.184854	35.726706
88	88	"Mequita el Sed"	"Mequita el Sed"	6	"Oulad Alan"	27	"Oulad Sidi Amer"				10																																																																					3.209277	35.770231
89	89	"Khrerebelia"	"Khrerebelia"	6	"Oulad Alan"	27	"Oulad Sidi Amer"				40																																																																					3.131527	35.738903
90	90	"Toual el Aoud"	"Toual el Aoud"	6	"Oulad Alens/Oulad Alan"	27	"Oulad Sidi Amer"	"près d'une fontaine"		41	27																																																														1							3.140008	35.693615
91	91	"El Berrouiguiga"	"El Berrouiguiga/Briougua"	6	"Oulad Alens/Oulad Alan"	27	"Oulad Sidi Amer"	"près d'un jardin"		45	23																		1																																																			3.133332	35.787736
92	92	"El Guetia"	"El Guetia"	6	"Oulad Alens/Oulad Alan"	28	"El Belida/Lebabda"	"entre une rivière et Chelifa"		49	39																																																											1										3.256882	35.924841
93	93	"Ben y Khresouch"	"Ben y Khresouch"	6	"Oulad Alan"	28	"Lebabda"				15																																																																					3.230105	35.917873
96	96	"El Hanout"	"El Hanout/Hanout"	6	"Oulad Alens/Oulad Alan"	28	"El Belida/Lebabda"	"entre 2 rivières"		24	25																																																											1										3.243283	35.924381
98	98	"Mednès"	"Mednès"	6	"Oulad Alan"	28	"Lebabda"				12																																																																					3.242698	35.895089
99	99	"chez Caid Bou Akaz"	"chez Caid Bou Akaz"	6	"Oulad Alan"	29	"Thaaziz"	"chez Caid Bou Akaz"			30			1																																																																		3.338586	35.866588
101	101	"Charfia"	"Charfia"	6	"Oulad Alan"	29	"Thaaziz"				40																																																																					3.229731	35.827739
104	104	"Trifiya"	"Trifiya/Terifa"	6	"Oulad Alens/Oulad Alan"	29	"Taaziza/Thaaziz"	"près d'une rivière"		30	20																																																											1										3.306791	35.856996
107	107	"Meksela"	"Meksela"	6	"Oulad Alan"	29	"Thaaziz"				60																																																																					3.269348	35.897437
108	108	"Bou Kerboub"	"Bou Kerboub"	6	"Oulad Alan"	29	"Thaaziz"				14																																																																					3.275217	35.855647
110	110	"Hemed Rioug"	"Hemed Rioug"	6	"Oulad Alan"	31	"Bedjama"				15																																																																					3.30394	35.8253
111	111	"Derouazia"	"Derouazia"	6	"Oulad Alan"	31	"Bedjama"				20																																																																					3.290896	35.827448
112	112	"Seffia"	"Seffia"	6	"Oulad Alan"	31	"Bedjama"				21																																																																					3.330608	35.812131
114	114	"El Benïa"	"El Benïa/Benia"	6	"Oulad Alens/Oulad Alan"	31	"El Adjema/Bedjama"	"près d'une ruine"		90	12																															1																																						3.292706	35.804761
115	115	"Zebira"	"Zebira"	6	"Oulad Alan"	31	"Bedjama"				11																																																																					3.298542	35.821736
116	116	"Tehal"	"Tehal/Tihhal"	6	"Oulad Alens/Oulad Alan"	32	"Oulad Si Mechared/Menubethin Oulad Sin Mecharued"	"près d'une ferme, entre 2 mamelons"		23	20																	1																																1																				3.236339	35.963263
117	117	"Aïn ben Metit"	"Aïn ben Metit"	6	"Oulad Alan"	32	"Menubethin Oulad Sin Mecharued"				20																																																													1								3.217869	35.954165
118	118	"El Mekemelia"	"El Mekemelia/Metkelma"	6	"Oulad Alens/Oulad Alan"	32	"Oulad Si Mechared/Menubethin Oulad Sin Mecharued"	"près d'une grosse pierre entre 2 montagnes"		65	20																																																1					1																3.238793	35.96612
121	121	"El Kheril Guiya"	"El Kheril Guiya/Hherirguia"	6	"Oulad Alens/Oulad Alan"	33	"Oulad Belheites/Bel Ytess"	"entre des rochers"		72	60																																																					1																3.377537	35.778699
123	123	"El Oueguediya"	"El Oueguediya/El Ouguedia"	6	"Oulad Alens/Oulad Alan"	33	"Oulad Belheites/Bel Ytess"	"entre 2 jardins"		42	25																		1																																																			3.33416	35.805931
124	124	"Defeiliea"	"Defeiliea/Defila"	6	"Oulad Alens/Oulad Alan"	33	"Oulad Belheites/Bel Ytess"	"près d'un jardin au bas d'une montagne"		39	35																		1																														1																					3.347605	35.786627
125	125	"Mohamed ben Tieb"	"Mohamed ben Tieb"	6	"Oulad Alan"	33	"Bel Ytess"	"sur la propriété de Mohamed ben Tieb"			80														1																																																							3.375821	35.815923
126	126	"Gotfas"	"Gotfas"	7	"Oulad Mokhtar"	11	"Oulad Mokhtar"	"toute la tribu ensilote en cet endroit"			760																																																																					3.20322	35.535936
130	130	"Taniflia"	"Taniflia"	9	"Sahari"	36	"Sahari"				150																																																																					3.637223	35.51518
132	132	"Mernith"	"Mernith"	9	"Sahari"	36	"Sahari"				110																																																																					3.40279	35.465986
134	134	"Khristen"	"Khristen"	10	"Oulad Sidi Aïssa el Adab/el Ahhedab"	37	"Oulad Sidi Tahar"				70																																																																					3.081432	35.209096
135	135	"Menaa"	"Menaa"	10	"Oulad Sidi Aïssa el Adab/el Ahhedab"	38	"Mekhalif"				20																																																																					3.352677	35.339641
137	137	"Bou Kem Nichi/Chergi"	"Bou Kem Nichi/Chergi/Ben el Mitsen"	11	"Rebaïa/Rebaïas"	40	"Oulad Saala/Oulad Salah/Oulad Salay"	"près de la rivière appelé Bougel Fesaïl/au-dessous des terres labourées"		95	185																																	1																										1										3.163052	36.04005
140	140	"Hadj'en Zerga"	"Hadj'en Zerga"	11	"Rebaïas"	40	"Oulad Salah"	"appartenant à Salay b. Abed"			1																																																																					3.161491	36.076283
141	141	"Rah el Betiouch"	"Rah el Betiouch"	11	"Rebaïas"	40	"Oulad Salah"	"appartenant à M. ben Chabay"			1																																																																					3.127821	36.054482
145	145	"Khrerouba"	"Khrerouba"	11	"Rebaïas"	43	"Oulad Salay"				13																																																																					3.116844	35.987059
146	146	"Sid Herats"	"Sid Herats"	11	"Rebaïas"	42	"Oulad Ahmed"				20						1																																																															3.026923	35.962541
147	147	"Zeraa el Hemor"	"Zeraa el Hemor"	11	"Rebaïas"	42	"Oulad Ahmed"				19																																																																					3.049277	35.953878
159	159	"Guedouar"	"Guedouar"	11	"Rebaïas"	45	"Oulad Aataf"				2																																																																					3.125302	36.040175
161	161	"Gâmes"	"Gâmes/El Guemer"	11	"Rebaïa/Rebaïas"	45	"Oulad Atta/Oulad Aataf"	"est près d'un mamelon, ouest montagne, nord mamelon, sud la plaine"		13	12																																																1	1															1					3.086662	36.012413
170	170	"Bou Hedjen"	"Bou Hedjen"	12	"Oulad Si Ahmed ben Youssef"	48	"Oulad Sidi el Khoidzer"				10																																																																					3.020158	36.111412
171	171	"Khresak Sid"	"Khresak Sid"	12	"Oulad Si Ahmed ben Youssef"	48	"Oulad Sidi el Khoidzer"				17																																																																					3.054112	36.097342
176	176	"Zerfias"	"Zerfias"	12	"Oulad Si Ahmed ben Youssef"	49	"El Zoua"	"chez B. Merizouka appartenant aux Oulad Sidi al Ouness"			25																																																																					3.149418	36.102488
180	180	"Charounïa"	"Charounïa/Chaania"	13	"Douaïres/Douair"	50	"Titry/Tittery"	"ouest rocher, nord Bled Mohamed ben Aïssa, est rivière, sud petit rocher"		99	177																																																					1						1										3.02468	35.914235
182	182	"Cherith"	"Cherith"	13	"Douair"	50	"Tittery"				35																																																																					3.038972	35.934178
187	187	"Heziba"	"Heziba"	13	"Douair"	51	"El Aallalema"	"à la mechta S. el Dekouch"			107												1																																																									2.977324	36.016027
188	188	"Kouka"	"Kouka"	13	"Douair"	51	"El Aallalema"				19																																																																					2.987903	36.033234
193	193	"Sghra"	"Sghra/Sekhrera"	13	"Douaïres/Douair"	52	"Oulad Raab nal el Oued/Oulad Rehab"	"est ravin, nord mamelon Abdi, ouest ravin, sud jardin"		160	170																		1																															1									1											2.978399	35.932917
194	194	"Amouda"	"Amouda/Aamouda"	13	"Douaïres/Douair"	52	"Oulad Raab nal el Oued/Oulad Rehab"	"Agha Choura, de l'ouest jardin, nord gourbi, est chemin, sud la ferme de l'agha"		186	160		1													1		1																																										1							3.003504	35.946054	"B"	3.003504	35.946054
195	195	"Hozeba"	"Hozeba"	13	"Douair"	52	"Oulad Rehab"				195																																																																					2.920783	35.965832
199	199	"Châmoutia"	"Châmoutia/Chahmethia"	13	"Douaïres/Douair"	53	"Oulad Raab nal el Regeb/Oulad Rehab Abdel Regab"	"ouest gourbi de El Assem, nord ?enzer, est rivière, sud un lieu appelé Frid"		45	15															1																																																						2.926964	35.930838
200	200	"Retal"	"Retal/Rethel"	14	"Oulad Hedim"	54	"Oulad Hedim"	"ouest Oulad Hamed, nord rocher, est montagne, sud ravin"		90	61																																																1					1					1											2.966019	36.058033
201	201	"Ourfethamam"	"Ourfethamam/Sidi Yagoub"	14	"Oulad Hedim"	54	"Oulad Hedim"	"Oulad Jacoub, ouest ravin, nord rocher, est Bled Amer, sud rocher ?bsibiss"		34	30																																																					1					1											2.954335	36.024528
202	202	"Debdaba"	"Debdaba/Debadib"	14	"Oulad Hedim"	54	"Oulad Hedim"	"(Aïa ben Jaïa) ouest rocher, nord rocher, est Bled Ali ben Jaïa, sud jardins"		170	35																		1																																			1	1															2.962985	36.008277
203	203	"El Guebab"	"El Guebab"	15	"Oulad Daïd"	55	"Oulad Sidi Nadji"				113																																																																					3.009512	36.15725
204	204	"Sidi Djemil"	"Sidi Djemil/Sidi Djemil el Firas el Gada"	15	"Oulad Daïd/Oulad Sidi Nadji"	55	"Oulad Sidi Nadji"	"El hadj Aïssan ben Zian, ouest Aïn Derela, nord petite montagne, est chemin, sud lieu applé (col) ?Ragba"		86	75						1																																										1													1								2.928034	36.129629
205	205	"Messabihh"	"Messabihh/Bir el Mssabehe"	15	"Oulad Daïd/Oulad Sidi Nadji"	55	"Oulad Sidi Nadji"	"Oulad el Mahoub, nord Djouma bou Affia, est rivière, Sud Djouma Mohamed ben Tïeb"		38	23																				1																																																	2.954574	36.142899
206	206	"Chaabet el Beguer"	"Chaabet el Beguer"	15	"Oulad Daïd"	55	"Oulad Sidi Nadji"				50																																																										1											3.028006	36.158222
207	207	"Dra ben Ourad"	"Dra ben Ourad/Draa Ourad"	15	"Oulad Deid/Oulad Daïd"	56	"Oulad Asiz/Oulad Aaziz"	"ouest Bled Oulad Boucheret, nord Oulad Messaoud, est ravin, sud rocher"		77	70																																																1	1				1					1											2.982378	36.070324
208	208	"Khrelona"	"Khrelona"	15	"Oulad Daïd"	56	"Oulad Aaziz"				86																																																																					3.009211	36.066542
209	209	"Guericha"	"Guericha"	15	"Oulad Daïd"	56	"Oulad Aaziz"				103																																																																					3.000879	36.059386
210	210	"Gaadet el Guerba"	"Gaadet el Guerba"	15	"Oulad Daïd"	57	"Hhechalfa"				130																																																																					3.013134	36.040062
211	211	"Regida/Meuriout"	"Regida/Meuriout/Regada"	15	"Oulad Deid/Oulad Daïd"	57	"El Achaffa/Hhechalfa"	"ouest Bled Ali bn Edylys, nord petite montagne, est Bled Mohamed ben Abderaman, sud Bled bou Bkr"		80	102																																																																					3.07102	36.073409
212	212	"Draa el Ahhemeur"	"Draa el Ahhemeur"	15	"Oulad Daïd/Souary/Abida"	58	"Zekmoutha/Oulad Ameur/Oulad Saïd/Abrass"				579																																																	1																				3.009694	36.108968
213	213	"Dra Lameur"	"Dra Lameur"	16	"Souary"	59	"Oulad Ameur"	"ouest Bled Abdelkader, nord peuplier, est Bled Ouled Bou Zemana"		164																																													1					1																				3.072466	35.867897
214	214	"Ben Mezdef"	"Ben Mezdef"	16	"Souary"	60	"Oulad Yagoub"				25																																																																					3.109619	35.804973
215	215	"Medaa"	"Medaa"	16	"Souary"	60	"Oulad Yagoub"				80																																																																					3.090337	35.785989
216	216	"Nesoue"	"Nesoue/Ben Nezou"	16	"Souary"	60	"Oulad Jacoub/Oulad Yagoub"	"(Amed ben Elouani) du nord ravin, ouest rocher, est rocher, sud rocher"		105	81																																																					1					1											3.080684	35.808795
217	217	"Miderbenat"	"Miderbenat"	16	"Souary"	60	"Oulad Yagoub"				300																																																																					3.074497	35.79186
218	218	"Dra Lamer Chergui"	"Dra Lamer Chergui"	16	"Souary"	61	"Oulad Deid"	"ouest Ehla el Amra, du nord chemin, est Ghersa ?ental'Adguer, sud Bled Mohamed el Arbi"		123																															1																			1																				3.083869	35.773751
219	219	"Ghersa/Gada"	"Ghersa/Gada/Khrerza"	16	"Souary"	61	"Oulad Deid/Oulad Saïd"	"(Cadi bn Chienn) ouest lieu appelé Chacora, nord Aïn, est rocher, sud ravin"		50	55							1																																											1			1					1			1								3.119221	35.758182
220	220	"El Faïdja"	"El Faïdja"	16	"Souary"	61	"Oulad Saïd"				45																																																				1																	3.112153	35.757125
221	221	"Um el Adjir"	"Um el Adjir/Mehedjir"	17	"Oulad Marref/Oulad Maaref"	62	"Oulad Ektsir/Oulad Ketsim"	"ouest ravin, nord rocher, est petite montagne, sud chemin"		310	270																														1																		1					1																3.013615	35.874119
222	222	"Fekrouna"	"Fekrouna/Fekroun"	17	"Oulad Marref/Oulad Maaref"	62	"Oulad Ektsir/Oulad Ketsim"	"ouest petite montagne, nord pierre, est chemin, sud rocher"		107	115																														1																		1					1																2.996018	35.882358
223	223	"Koidïa"	"Koidïa/El Koudia"	17	"Oulad Marref/Oulad Maaref"	63	"Oulad Abides/Oulad Aabid"	"ouest lieu dit Goudjila, nord rocher, est idem, sud lieu appelé Matat Ouled Habid sur la petite motagne"		155	170																																																1					1																2.987938	35.849405
224	224	"Zerreb"	"Zerreb/Azerab"	17	"Oulad Marref/Oulad Maaref"	63	"Oulad Abides/Oulad Aabid"	"ouest ravin, nord fontaine, est lieu appelé Tartar, sud lieu appelé Ferkoussa"		137	100																																																										1				1							2.992137	35.853387
225	225	"Khrissen"	"Khrissen"	17	"Oulad Maaref"	64	"Oulad Aariou"				90																																																																					3.024429	35.907073
226	226	"Beka"	"Beka/Chebak"	17	"Oulad Marref/Oulad Maaref"	64	"Oulad Arioua/Oulad Aariou"	"nord montagne, ouest ravin, est ravin, sud rocher"		115	825																																																1					1					1											3.004086	35.91604
227	227	"Oum el Kbour"	"Oum el Kbour/Om el Kebour"	18	"Deimat"	65	"Deimat"	"ouest rivière, nord petite montagne sud marabout"		106	40																								1																								1											1										3.050734	35.70443
228	228	"Delfa"	"Delfa"	18	"Deimat"	65	"Deimat"				142																																																																					3.123403	35.695334
229	229	"El Medjaj"	"El Medjaj"	18	"Deimat"	65	"Deimat"				40																																																																					3.128416	35.712327
230	230	"El Aalemia"	"El Aalemia"	18	"Deimat"	65	"Deimat"				200																																																																					3.082305	35.733537
231	231	"El Ouzera"	"El Ouzera"	19	"Abida"	66	"Abrass/El Cherfa"				110																																																																					2.917853	36.113631
232	232	"Draa Aïn Om Aïssa"	"Draa Aïn Om Aïssa"	19	"Abida"	66	"Abrass"				40																																																	1												1								2.936716	36.055873
233	233	"Draa Tafa"	"Draa Tafa/Dera Tafa/Draa el Tafa"	19	"Abida"	66	"Abrass/Chorfa/El Cherfa"	"au nord de l'Oued Zebir/entre Oued el Mounghar et Dera Taga"		35	97																																																	1										1										2.886854	36.081075
234	234	"El Gaada"	"El Gaada"	19	"Abida"	66	"Abrass"				40																																																		1																			2.945417	36.100727
235	235	"Chaabet Soussi"	"Chaabet Soussi/Chabet Essous"	19	"Abides/Abida"	66	"Labras/Abrass"	"entre un chemin et Chaabet Soussi"		62	31																														1																												1											2.908073	36.095795
236	236	"Matmar Labiad"	"Matmar Labiad/Draa Lobiad"	19	"Abides/Abida"	66	"Labras/Abrass"	"entre Dera Sekek et Chaabet Mintina"		100	100																						1																											1																				2.888098	36.117869
237	237	"El Madoura"	"El Madoura/Medour"	19	"Abides/Abida"	66	"Labras/Abrass"	"entre 2 ruisseaux entre Bir Ann ?Anniya"		30	40																				1																																							1										2.936429	36.065183
238	238	"Dera Lahmar"	"Dera Lahmar"	19	"Abides"	66	"Labras"	"entre Aaicha et Sidi Daoud"		50							1																		1																																													2.863403	36.149279
239	239	"Chaabet el Alia"	"Chaabet el Alia"	19	"Abida"	66	"Abrass"				46																																																										1											2.944721	36.115696
240	240	"Azelet el Raba"	"Azelet el Raba"	19	"Abida"	66	"Abrass"				40																																																																					2.903302	36.123649
241	241	"Senoubria"	"Senoubria"	19	"Abida"	66	"Abrass"				20																																																																					2.894346	36.078327
242	242	"Labied"	"Labied"	19	"Abida"	66	"Abrass"				49																																																																					2.898918	36.093783
243	243	"El Gubeha"	"El Gubeha"	19	"Abida"	66	"Abrass"				73																																																																					2.882941	36.116223
244	244	"Sessaf Azebar"	"Sessaf Azebar"	19	"Abida"	66	"Abrass"				20																																																																					2.933022	36.068701
245	245	"Hazba"	"Hazba"	19	"Abida"	66	"Abrass"	"à Ben Ali à l'ouest de la rivière"			40																																																											1										2.904817	36.09673
246	246	"El Fauidj"	"El Fauidj/El Faïdja"	19	"Abides/Abida"	66	"Labras/Abrass"	"entre Aïn el Djenin et un mamelon"		60	60																																																	1												1								2.934679	36.068741
247	247	"El Makmen"	"El Makmen/Mekamen"	19	"Abides/Abida"	66	"Labras/Abrass"	"entre un ruisseau et une route"		26	27																													1																														1	1									2.893509	36.144915
249	249	"Aïn Sessaf"	"Aïn Sessaf"	19	"Abida"	67	"El Cherfa"				23																																																													1								2.883662	36.103999
250	250	"El Besbessi"	"El Besbessi/Bessabiss"	19	"Abides/Abida"	67	"Chorfa/El Cherfa"	"entre un mechta et Gaadet el Bissebis"		80	80												1																																																									2.863095	36.104122
252	252	"Sidi Tair"	"Sidi Tair/Sidi Ali Etthian"	19	"Abides/Abida"	67	"Chorfa/El Cherfa"	"entre Sidi Ali Aayar et Dera el Andjar"		15	25						1																																											1																				2.877767	36.108327
253	253	"El Mahhref"	"El Mahhref/El Mekhrerat"	19	"Abides/Abida"	68	"Tehalit/Cheikh Moussa"	"entre Ahbarii et Batez bel Hadj"		50	58																																																																					2.92934	36.054222
254	254	"Had Dris"	"Had Dris/Lhedadris"	19	"Abides/Abida"	68	"Tehalit/Cheikh Moussa"	"entre Dekhira et Chaabet Moussed"		75	56																																																										1											2.905687	36.039619
255	255	"Chaabet Melana"	"Chaabet Melana/El Chaabat"	19	"Abides/Abida"	68	"Tehalit/Cheikh Moussa"	"entre Chaabet Si Fer et Chaabet el Mellana"		77	62																																																										1											2.907238	36.043276
256	256	"El Gattar"	"El Gattar/Guetan"	19	"Abides/Abida"	68	"Tehalit/Cheikh Moussa"	"entre 2 ruisseaux près de Gaadet Oulad Ehdim"		43	32																																																											1										2.90088	36.07126
257	257	"Mehhezat"	"Mehhezat"	19	"Abida"	68	"Cheikh Moussa"				1																																																																					2.897719	36.058887
258	258	"Chandara"	"Chandara/Chendara"	19	"Abides/Abida"	68	"Tehalit/Cheikh Moussa"	"entre 2 grandes rivières près d'un grande route"		81	52																													1																														1										2.923028	36.048889
259	259	"Bouhalfaya"	"Bouhalfaya/Bou Hhelfaïa"	19	"Abides/Abida"	68	"Tehalit/Cheikh Moussa"	"entre Chaabet Moudoud et Chaabet Boutouil"		97	20																																																										1											2.889604	36.071354
260	260	"Debdeb"	"Debdeb/Debdab"	19	"Abides/Abida"	69	"El Ghereba/El Reraba"	"entre Chaabet ?Fassatap et Mechtar el Karma"		58	65												1																																										1				1											2.950466	36.005716
261	261	"Messif"	"Messif"	19	"Abida"	69	"El Reraba"				13																																																																					2.899329	36.010852
262	262	"Bou Chenouf"	"Bou Chenouf"	19	"Abida"	69	"El Reraba"				55																																																																					2.904804	36.022322
263	263	"Ada ben Tsabet"	"Ada ben Tsabet"	19	"Abida"	69	"El Reraba"				20																																																																					2.913387	36.026107
264	264	"Achir"	"Achir"	19	"Abida"	69	"El Reraba"				43																																																																					2.944055	36.040245
265	265	"Chaabet Si Slimen"	"Chaabet Sidi Sliman/Chaabet Si Slimen"	19	"Abides"	139	"El Reraba/El Kessentiya"	"entre Si Slimen et Chaabet Sedjehed"		27	20																																																										1											2.903929	35.981231
266	266	"Cheraïguïa"	"Cheraïguïa"	19	"Abida"	69	"El Reraba"				35																																																																					2.917257	36.005351
267	267	"Oued Maameur"	"Oued Maameur"	19	"Abida"	69	"El Reraba"				25																																																									1												2.904003	36.008986
268	268	"B. Khrira"	"B. Khrira"	19	"Abida"	69	"El Reraba"				25																																																																					2.945095	36.007054
269	269	"Djenan Aly el Ameri"	"Djenan Aly el Ameri"	19	"Abida"	69	"El Reraba"				20																			1																																																		2.941476	36.03682
270	270	"Hezeba"	"Hezeba"	19	"Abida"	69	"El Reraba"				57																																																																					2.920802	36.023863
271	271	"Gaadet Khreraïa"	"Gaadet Khreraïa"	19	"Abida"	69	"El Reraba"				64																																																																					2.933367	36.038102
272	272	"Chaabet Aïn Gueth"	"Chaabet Aïn Gueth"	19	"Abida"	69	"El Reraba"				35																																																										1											2.899843	36.027729
273	273	"Draa Lebiod"	"Draa Lebiod"	19	"Abida"	69	"El Reraba"				46																																																	1																				2.910424	36.014186
274	274	"El Cherid"	"El Cherid"	19	"Abida"	70	"Oulad Senan"				30																																																																					2.880126	35.98482
275	275	"Dar Thebel"	"Dar Thebel"	19	"Abida"	70	"Oulad Senan"				70														1																																																							2.8542	35.980627
276	276	"El Mesdoura"	"El Mesdoura/Mesdouda"	19	"Abides/Abida"	70	"Semela/Oulad Senan"	"entre Chaabet el Kebira et Djabar Felfa"		17	21																																																										1											2.882463	35.992848
277	277	"Zeouia"	"Zeouia/Zaouïa"	20	"Beni Hassen/Beni Hessen"	71	"El Kerebib/Kerabib"	"près de mechta Si ben Abdallah"		100	100						1						1						1																																																			2.821217	36.034794
278	278	"Bou Zouren"	"Bou Zouren"	20	"Beni Hessen"	71	"Kerabib"				12																																																																					2.819448	36.034881
279	279	"Aïcha"	"Aïcha/Aiche"	20	"Beni Hessen/Beni Hassen"	71	"Kerabib/Oulad Sidi Yagoub"	"entre Chaabet Aichi et Dera Theber"		35	27																																																	1									1											2.840462	36.02888
280	280	"Terba"	"Terba/Torba"	20	"Beni Hessen/Beni Hassen"	71	"Kerabib/Oulad Sidi Yagoub"	"entre Khabechia et Chaabet Nourian"		16	20																																																										1											2.815961	36.040326
281	281	"El Arbaa"	"El Arbaa"	20	"Beni Hessen"	71	"Kerabib"				15																																																																					2.779559	36.04638
282	282	"Nedjaria"	"Nedjaria"	20	"Beni Hessen"	71	"Kerabib"				13																																																																					2.829814	36.049805
283	283	"Ras el Aïn"	"Ras el Aïn"	20	"Beni Hessen"	71	"Kerabib"				15																																																	1												1								2.804907	36.029083
284	284	"Tegueret"	"Tegueret"	20	"Beni Hessen"	72	"Mezaïa"				12																																																																					2.83781	35.994158
285	285	"Baten el Karrouch"	"Baten el Karrouch/Bathen el Kerouch"	20	"Beni Hassen/Beni Hessen"	72	"Mezeïa/Mezaïa"	"entre des jardins et des mechtas"		95	30												1						1																																																			2.832275	36.003982
286	286	"El Baseda"	"El Baseda"	20	"Beni Hessen"	72	"Mezaïa"				13																																																																					2.793687	35.99745
287	287	"Mechta el Khada"	"Mechta el Khada/Mechta el Khader"	20	"Beni Hassen/Beni Hessen"	72	"Mezeïa/Mezaïa"	"entre un peuplier et un chemin"		9	20												1																		1														1																									2.80195	36.005768
288	288	"Gera"	"Gera/El Sera"	20	"Beni Hassen/Beni Hessen"	73	"Oulad Mennaa/Oulad Menâa"	"entre un cimetière et un jardin"		21	22																		1							1																																												2.722969	36.042986
289	289	"Draa el Biod"	"Draa el Biod"	20	"Beni Hessen"	73	"Oulad Menâa"				91																																																	1																				2.68446	36.028291
290	290	"El Heman"	"El Heman"	20	"Beni Hessen"	74	"Oulad Amran"				47																																																																					2.858754	36.088301
291	291	"Regaï"	"Regaï"	20	"Beni Hessen"	74	"Oulad Amran"				60																																																																					2.839147	36.135515
292	292	"Sidi Lahssen"	"Sidi Lahssen/Sidi Lehessen"	20	"Beni Hassen/Beni Hessen"	73	"Oulad Mennaa/Oulad Amran"	"près de Sidi Lahssen"		18	16						1																																																															2.741187	36.08058
293	293	"Khrebit"	"Khrebit"	20	"Beni Hessen"	74	"Oulad Amran"				24																																																																					2.835274	36.122274
294	294	"Sera"	"Sera"	20	"Beni Hessen"	74	"Oulad Amran"				51																																																																					2.836494	36.08061
295	295	"Bou Tsaaleb"	"Bou Tsaaleb"	20	"Beni Hessen"	75	"Oulad Saïd"				22																																																																					2.79018	36.086284
296	296	"Mectaan"	"Mectaan"	20	"Beni Hessen"	75	"Oulad Saïd"				12																																																																					2.798913	36.071009
297	297	"Sidi Ameur"	"Sidi Ameur"	20	"Beni Hessen"	75	"Oulad Saïd"				12						1																																																															2.819702	36.078627
298	298	"Gueroura"	"Gueroura"	20	"Beni Hessen"	75	"Oulad Saïd"				15																																																																					2.797408	36.102894
299	299	"Beferna"	"Beferna"	20	"Beni Hessen"	76	"Beni Rïan"				70																																																																					2.787816	36.021398
300	300	"El Dechera"	"El Dechera"	20	"Beni Hessen"	77	"Chebaa"				27										1																																																											2.853396	36.057427
301	301	"Si Lekhal"	"Si Lekhal/Sid Lekehal"	20	"Beni Hassen/Beni Hessen"	77	"Chemama/Chebaa"	"entre un chemin et Fers Boumouan"		47	40						1																								1																																							2.873605	36.05155
302	302	"Rekaat el Kat"	"Rekaat el Kat"	20	"Beni Hessen"	77	"Chebaa"				6																																																																					2.869525	36.078661
303	303	"Ghouder"	"Ghouder"	21	"Ghouder"	78	"Hannacha/Hannachas"	"sur le sommet d'un mamelon, à l'ouest d'une marabout, au sud de grand arbres et un jardin à l'ouest des gourbis/limités à l'est sur ??, à l'ouest par Djenan Si Moussa et au Nord par l'Oued Selef"		40	36															1	1		1						1																									1										1										2.589822	36.200036
304	304	"Mehamedia"	"Mehamedia"	21	"Mehamedia"	79	"Hannachas"	"limités à l'ouest par un olivier, à l'est par Djenan Kermoussi el Nessari"			12																			1																1																																		2.614841	36.171579
305	305	"Dra Saboun"	"Dra Saboun"	21	"Dra Saboun"	80	"Hannacha/Hannachas"	"ouest gourbi, sud mosquée et jardin, au-dessus d'un chemin/limités au sud par un térébinth et à l'ouest par Djenan el Tin"		43	18															1			1					1							1									1										1																				2.619679	36.18391
306	306	"Oulad Ben Alia"	"Oulad Ben Alia/Oulad Ben el Alia"	21	"Oulad Ben Alia"	81	"Hannacha/Hannachas"	"ouest jardin, est ravin, sud jardin au-dessous mamelon/à l'ouest et à l'est par un ruisseau, au Sud par Djenan el Tin"		57	46																		1																															1									1	1										2.564572	36.177638
307	307	"Oulad Amoud"	"Oulad Amoud/Oulad Hemouda"	21	"Oulad Oulad Hemouda"	82	"Hannacha/Hannachas"	"près de la fontaine Aïn Aloula, d'un marabou et d'un rocher/à l'ouest par el Shebar, au Sud par el Kehef el Aali et à l'est par le tremble"		77	40																								1																				1									1								1	1							2.529919	36.185246
308	308	"El Ouethia"	"El Ouethia"	22	"Ouzerane"	83	"Cheraga (Eastern)"	"limité à l'ouest par les meules, à l'est par le ruisseau"			3																												1																															1										2.915462	36.342735
309	309	"Coudiet Megaoua"	"Coudiet Megaoua"	22	"Ouzerane"	84	"El Gzaba (Western)"	"limité à l'ouest par le ruisseau, au sud par le Ma Rérabas, à l'est par le puit"			4																				1																												1	1											1									2.802271	36.349621
310	310	"Bouda"	"Bouda"	22	"Ouzerane"	84	"El Gzaba (Western)"	"par les Rérabas à l'ouest, au nord par le ruisseau, au sud par la meule."			7																		1																																										1									2.80938	36.343613
311	311	"Bou Dokhan/Smena"	"Bou Dokhan/Smena/Menia"	22	"Ouzera/Ouzerane"	85	"Beni Aïch./Beni Aïssa"	"Ali Ben Smena, sud petit jardin, est rocher, au-dessus peuplier/à l'ouest par El Gueraben, à l'est par el-Kaf, au nord par la rivière"		35	37																		1																										1							1		1						1										2.849965	36.333765
312	312	"Bou Dokhan"	"Bou Dokhan/Bou Dekhran"	22	"Ouzera/Ouzerane"	85	"Beni Aïch./Beni Aïssa"	"El Koussier, ouest rivière, est noueder en dessus chemin/à l'ouest par le ruisseau, au sud par les meules, à l'est la route."		7	8																					1																																																2.82843	36.32349
313	313	"Ras el Oued"	"Ras el Oued"	22	"Ouzera/Ouzerane"	85	"Beni Aïch./Beni Aïssa"	"Ali Ben Miloud en dessus chemin, nord gourbi/Achour ben Pesshar, en dessus Kormous, ouest gourbi, nord rivière/à l'ouest par les gourbis, au nord le chemin et au sud les meules/à l'ouest par le ruisseau, à l'est la route au sud le gourbi"		34	14															1	1												1		1																			1								1		1										2.871195	36.288221
314	314	"Ras el Oued/ Sidi Moussa"	"Ras el Oued/ Sidi Moussa/Haouch Sidi Moussa"	22	"Ouzera/Ouzerane"	85	"Beni Aïch./Beni Aïssa"	"Si Mohamed ben Sidi Moussa, en dessous rocher, ouest rocher, est rivière, nord gourbi/à l'ouest par la montagne, à l'est par la rivière au sud le gourbi"		15	10						1					1				1																																	1	1				1				1		1										2.947244	36.344168
315	315	"Haouch Metmer"	"Haouch Metmer"	22	"Ouzeras/ne"	85	"Beni Aïssa"	"à l'ouest par un ruisseau, à l'est par le haouche et au sud par les meules"			16											1											1						1																															1	1									2.858375	36.360992
316	316	"Aïn Aïssa"	"Aïn Aïssa"	23	"Aouaras"	86	"Oulad Beghti Ben Amar/Oulad Amran"	"au sud un arbre, est un rocher, nord une ?amandier"		51	64																																				1									1								1								1								2.829343	36.175563
317	317	"Aïn Ameza"	"Aïn Ameza/Aïn Hem'da"	23	"Aouaras"	86	"Oulad Beghti Ben Amar/Oulad Amran"	"au nord un grand arbre, ouest idem, près d'un cimetère, au sud une source au-dessous un arbre"		40	35																									1																				1																1								2.836176	36.193048
318	318	"Haouch Embouch"	"Haouch Embouch"	23	"Aouaras"	86	"Oulad Amran"				34																																																																					2.859168	36.185343
319	319	"Oued Bekhreth"	"Oued Bekhreth"	23	"Aouaras"	86	"Oulad Amran"				35																																																									1												2.841046	36.181724
320	320	"Sidi Anan"	"Sidi Anan"	23	"Aouaras"	87	"El Ouatha"				25						1																																																															2.878721	36.160285
321	321	"Ouad Sehari"	"Ouad Sehari/Ouad Saary"	23	"Aouaras"	87	"El Ouatha/Oulad Saoud"	"ouest rivière, est rocher, sud gourbi, nord rivière"		30	20															1																																						1						1										2.845992	36.165911
322	322	"Sidi Sliman"	"Sidi Sliman/El Aouche"	23	"Aouaras"	87	"El Ouatha/Oulad Saoud"	"de l'ouest un lieu appelé Sidi Sliman, de l'est un gourbi, du sud gourbi, du nord rivière"		53	61						1									1	1																																											1										2.821227	36.15059
323	323	"Oulad el Arbi"	"Oulad el Arbi/Ouled el Arbi"	23	"Aouaras"	87	"El Ouatha/Oulad Saoud"	"ouest jardin, est grenadier et figuier, sud petit jardin près de la rivière, nord mamelon"		3	50																																						1		1									1										1										2.846101	36.150108
324	324	"Baza Haouch"	"Baza Haouch"	23	"Aouaras"	87	"El Ouatha"	"au milieu du haouch"			9											1																																																										2.850972	36.154141
325	325	"Oulad Khraled Bessouber"	"Oulad Khraled Bessouber"	23	"Aouaras"	88	"Oulad Saoud"	"dans la maison du Cheikh/dans la mechta de Mohamed ben Tekhran"			72				1								1		1																																																							2.786138	36.197656
326	326	"(près de la ferme)"	"(près de la ferme)/chez le Cheikh"	23	"Aouaras"	89	"Oulad Taouti/Oulad Salah et Oulad Tabet"	"en venant de l'ouest un amandier et un grenadier, de l'est un rocher, du sud une grange, du nord une vigne/dans la maison du Cheikh"		22	9				1										1			1										1							1		1				1													1																2.752444	36.134353
327	327	"Zaouïa Si Hamed ben Amuer"	"Zaouïa Si Hamed ben Amuer/Ezzaouïa"	23	"Aouaras"	89	"Oulad M. ben Saad ben Ramdan/Oulad Salah et Oulad Tabet"	"dans le gourbi d'hiver, en venant du sud une mosquée, en venant de l'est une amandier, de l'ouest une rivière"		22	26						1									1			1					1													1																							1										2.779793	36.163234
328	328	"Oulad Touati"	"Oulad Touati"	23	"Aouaras"	89	"Oulad Salah et Oulad Tabet"				34																																																																					2.807453	36.124257
329	329	"Mecheta ben il Kbaïl Ali"	"Mecheta ben il Kbaïl Ali/El Mechta"	23	"Aouaras"	89	"Oulad Taouti/Oulad Salah et Oulad Tabet"	"de l'est un ravin, du sud une rivière, de l'ouest un ravin, du nord un rocher/chez Bou Kebaïli"		38	39												1																																									1					1	1										2.785806	36.14796
330	330	"Ghera Oulad Tabet"	"Ghera Oulad Tabet/Dra Oulad Tabet"	23	"Aouaras"	89	"Oulad Taouti/Oulad Salah et Oulad Tabet"	"de l'ouest un jardin, de l'est un gourbi, du sud une rivière, du nord un gourbi"		31	42															1	1		1																																									1										2.77582	36.129176
331	331	"Mechta Oued Bachir"	"Mechta Oued Bachir"	23	"Aouaras"	89	"Oulad Salah et Oulad Tabet"				18												1																																													1												2.771313	36.168082
332	332	"dans leurs maisons"	"dans leurs maisons"	23	"Aouaras"	91	"uncertain (?M. Nasseria)/M. Nasseria"	"toute cette fraction a son graine enfermé dans le leurs maisons"																	1		1																																																					2.770619	36.216421
333	333	"Mebdoua"	"Mebdoua/Mebdoue"	24	"Righas"	92	"Oulad Messaoud/Oulad Massaoud"	"au milieu d'une rocher appellé Sià"		39	21																																																					1																2.643606	36.173842
334	334	"Khrenachi"	"Khrenachi"	24	"Righas"	92	"Oulad Massaoud"				18																																																																					2.671045	36.17922
335	335	"Moul Baghâ"	"Moul Baghâ/Begaâ"	24	"Righas"	92	"Oulad Messaoud/Oulad Massaoud"	"sous des arbres"		7	29																																													1																								2.679837	36.202052
336	336	"Lgahla"	"Lgahla/Lakhrela"	24	"Righas"	92	"Oulad Messaoud/Oulad Massaoud"	"près d'oliviers sauvages"		13	35																																					1																																2.666562	36.172976
337	337	"Gkar"	"Gkar/Om el Guedan"	24	"Righas"	93	"Oulad Sidi Ahmed ben Youssef"	"entre des figuiers de Barbarci et des gourbis"		7	40															1	1																						1																															2.597899	36.146332
338	338	"Lkhlet"	"Lkhlet/Om el Khrelat"	24	"Righas"	93	"Oulad Sidi Ahmed ben Youssef"	"entre des jardins et des gourbis"		10	16															1	1		1																																																			2.592741	36.152713
339	339	"Ehkar"	"Ehkar/Dekara"	24	"Righas"	93	"Oulad Sidi Ahmed ben Youssef"	"près des gourbis"		16	29															1	1																																																					2.637124	36.149327
340	340	"Fritess"	"Fritess"	24	"Righas"	93	"Oulad Sidi Ahmed ben Youssef"				18																																																																					2.620858	36.123653
341	341	"Dra bou Rehal"	"Dra bou Rehal"	24	"Righas"	94	"Oulad Beni Aïssa"				31																																																	1																				2.721368	36.075171
342	342	"Dra Seulel"	"Dra Seulel/Dra bou Selal"	24	"Righas"	94	"Oulad Ben Aïssa/Oulad Beni Aïssa"	"entre un arbre et une meule de paille"		30	35																												1																	1				1																				2.729778	36.118504
343	343	"Bou Addi"	"Bou Addi"	24	"Righas"	94	"Oulad Beni Aïssa"				15																																																																					2.744392	36.120522
344	344	"Chaïba"	"Chaïba"	24	"Righas"	94	"Oulad Beni Aïssa"				12																																																																					2.73936	36.079269
345	345	"Souïza"	"Souïza"	24	"Righas"	95	"Ouatha"				33																																																																					2.688581	36.108842
346	346	"Zeboudja"	"Zeboudja"	24	"Righas"	95	"Ouatha"				4																																																																					2.666884	36.10473
347	347	"Ghar b. Kran"	"Ghar b. Kran/Caadet bou Kara"	24	"Righas"	95	"Ouanid/Ouatha"	"entre la source et le gourbi"		30	31															1																																														1								2.697308	36.10467
348	348	"Bou Achera"	"Bou Achera"	24	"Righas"	96	"Oulad Bou Achera"	"près d'un jardin et des gourbis"		9	19																																																																					2.668773	36.08049
349	349	"Teferaouat"	"Teferaouat"	24	"Righas"	96	"Oulad Bou Achera"				4																																																																					2.67564	36.080411
350	350	"Caadet Hemouda"	"Caadet Hemouda"	24	"Righas"	96	"Oulad Bou Achera"				9																																																																					2.702428	36.087193
351	351	"Sidi Rabah"	"Sidi Rabah"	24	"Righas"	96	"Oulad Bou Achera"				20						1																																																															2.655129	36.069864
352	352	"Abdelak"	"Abdelak/Abdel Haq"	24	"Righas"	97	"Oulad Laouar/Oulad El Aouar"	"près des oliviers"		26	40																																					1																																2.596775	36.113257
353	353	"Omm el Ghrob"	"Omm el Ghrob/Om el Khrouab"	24	"Righas"	97	"Oulad Laouar/Oulad El Aouar"	"près d'un jardin de figuiers de Barbarci"		28	19																		1																				1																															2.606717	36.088953
354	354	"Om el Kelem"	"Om el Kelem"	24	"Righas"	97	"Oulad El Aouar"				8																																																																					2.61632	36.095463
355	355	"Gadet bou Sidel"	"Gadet bou Sidel/Bou Sidah"	24	"Righas"	97	"Oulad Laouar/Oulad El Aouar"	"près des gourbis"		10	40															1	1																																																					2.63737	36.094345
356	356	"El Ababda"	"El Ababda"	24	"Righas"	97	"Oulad El Aouar"	"auprès de la mosquée"			10																							1																																														2.649701	36.088904
357	357	"Sidi Lassen"	"Sidi Lassen/Si Lehessen"	24	"Righas"	98	"Senadja/Sennemadj"	"entre un grenadier et des gourbis"		10	20						1									1	1																								1																													2.672817	36.138499
358	358	"Si Mezzoug"	"Si Mezzoug"	24	"Righas"	98	"Sennemadj"				5						1																																																															2.658014	36.135014
359	359	"Aïn Djenan"	"Aïn Djenan"	24	"Righas"	98	"Sennemadj"				20																			1																																										1								2.653202	36.150828
360	360	"Djenan bou Khaour"	"Djenan bou Khaour"	24	"Righas"	98	"Sennemadj"				12																			1																																																		2.678775	36.134952
361	361	"Hemid"	"Hemid/S. el Hemida"	24	"Righas"	98	"Senadja/Sennemadj"	"entre des gourbis et la source"		11	20															1	1																																													1								2.643782	36.142997
362	362	"Tlemassi"	"Tlemassi/Telamass"	24	"Righas"	99	"Oulad Aïssa"	"au milieu des peupliers"		19	26																																												1																									2.736845	36.196906
363	363	"Guemana"	"Guemana/Akemam"	24	"Righas"	99	"Oulad Aïssa"	"près de meules de paille/près les meules de paille"		20	18																																																																					2.721213	36.193949
364	364	"Laka"	"Laka"	24	"Righas"	99	"Oulad Aïssa"				12																																																																					2.726015	36.188483
365	365	"Aïn el Djenen"	"Aïn el Djenen/Aïn el Djenan"	24	"Righas"	99	"Oulad Aïssa"	"entre la source et la ferme"		15	11																	1		1																																										1								2.730136	36.183574
366	366	"Ben Achour"	"Ben Achour"	24	"Righas"	99	"Oulad Aïssa"	"près de la mosquée"		17	20																							1																																														2.745205	36.178332
367	367	"Galazoun"	"Galazoun/Azoun"	24	"Righas"	100	"El Afaïr/Hefaïr"	"au milieu des gourbis"		14	40															1	1																																																					2.751434	36.231668
368	368	"Doueli Akrot"	"Doueli Akrot/Doulem Akrout"	24	"Righas"	100	"El Afaïr/Hefaïr"	"entre un peuplier et des gourbis"		7	10															1	1																												1																									2.733815	36.229327
369	369	"Aïn el Beda"	"Aïn el Beda/Aïn el Bida"	24	"Righas"	101	"Oulad Ben Adi/Beni Madi"	"entre des arbres et des gourbis"		9	15															1	1																													1																1								2.695607	36.132525
370	370	"Niadem"	"Niadem"	24	"Righas"	101	"Beni Madi"				18																																																																					2.715783	36.118924
371	371	"S. el Khreton"	"S. el Khreton"	24	"Righas"	101	"Beni Madi"				10						1																																																															2.694113	36.113617
372	372	"Loutïa"	"Loutïa/El Ouithia"	24	"Righas"	101	"Oulad Ben Adi/Beni Madi"	"près d'oliviers sauvages/près d'un gros chêne"		19	20																																					1					1																											2.72718	36.128206
373	373	"Dra el Arar"	"Dra el Arar"	24	"Righas"	101	"Beni Madi"				8																																																	1																				2.698378	36.123902
374	374	"Rabta"	"Rabta/Rabetha"	25	"Mouzaïa"	102	"Zdina/Zina"	"ouest ravin, est rivière, au-dessus caroubier, au-dessous jardin"		14	11																		1																							1																	1	1										2.72924	36.42933
375	375	"Bethmaïa"	"Bethmaïa"	25	"Mouzaïa"	103	"Tadnaret"				6																																																																					2.767427	36.396355
376	376	"Taga"	"Taga"	25	"Mouzaïa"	104	"Beni Atali/Beni Ottly"	"est jardin, au dessus Aïn el Kerouech, ouest noueder, au-dessous Marabout Sidi Otman"		6	6						1												1			1																																								1								2.764455	36.35582
377	377	"Mehta Oulad Slaa"	"Mehta Oulad Slaa/Mechta Oulad Salah"	25	"Mouzaïa"	104	"Beni Atali/Beni Ottly"	"en-dessus jardin, ouest jardin, au-dessous gourbi, est lemonnier"		5	4												1			1			1																	1																																		2.740169	36.353128
378	378	"Gelib"	"Gelib/Guelib"	25	"Mouzaïa"	105	"Bou Alaoum/Bou Allaboum"	"au-dessus chênes verts, est jardin, au-dessous ravin"		10	11																		1																								1																1											2.713018	36.306739
379	379	"Tola an Beran"	"Tola an Beran/Aïn Talabran"	25	"Mouzaïa"	105	"Bou Alaoum/Bou Allaboum"	"ouest chemin, est source, sud lieu appelé el Frid n Verrous"		8	6																														1																															1								2.728886	36.318353
380	380	"Coudiet el Amra"	"Coudiet el Amra/Kria el Amera"	25	"Mouzaïa"	105	"Bou Alaoum/Bou Allaboum"	"Oued el Gheloure en venant de l'ouest, en dessous il Messen, sud Dar el Couscous, nord la rivière Timelaïn"		14	6														1																																		1	1										1										2.675982	36.309866
381	381	"Griouga"	"Griouga/Agueri Ongar"	25	"Mouzaïa"	105	"Bou Alaoum/Bou Allaboum"	"est ravin, sud marabout Sidi Ghlifa, ouest ravin, nord lieu applé Ghrem el Margre"		4	6						1																		1																																		1											2.719391	36.327762
382	382	"Tazmouret"	"Tazmouret/Tazemourt"	25	"Mouzaïa"	106	"Oulad Hessin/Oulad Si Ameur"	"en-dessous jardin, au-dessous mamelon, ouest lieu appelé Ghem Sokma, est ravin"		13	9																																																																					2.722915	36.360832
383	383	"El Hedjadj"	"El Hedjadj"	25	"Mouzaïa"	106	"Oulad Hessin"				19																																																																					2.688964	36.350983
384	384	"Oulad Si Ameur"	"Oulad Si Ameur"	25	"Mouzaïa"	107	"Oulad Si Ameur"				6																																																																					2.6666	36.456273
385	385	"Ghiem el Hadj Ameur ben Haich"	"Ghiem el Hadj Ameur ben Haich/Ameur ben Aïch"	25	"Mouzaïa"	107	"Oulad Si Ameur"	"entouré de haies"		6	5																												1																																									2.679766	36.446612
386	386	"Coudet Zgrar"	"Coudet Zgrar/Keriat Zeguera"	25	"Mouzaïa"	108	"El Achour/Hechem"	"est lieu appelé El Madgel, nord Aïn Tolba, ouest Marabout de Sidi ben Abdallah, sud peupliers"		10	3						1																		1																				1				1	1												1								2.680044	36.397092
387	387	"Zärif"	"Zärif/Zerif"	25	"Mouzaïa"	108	"El Achour/Hechem"	"sud Oued Sidi Moussa"		6	2																																																											1										2.682959	36.385428
388	388	"Kriam ben Hiara"	"Kriam ben Hiara"	25	"Mouzaïa"	109	"Chemama"				3																																																																					2.725031	36.375729
389	389	"Dra Aril"	"Dra Aril"	25	"Mouzaïa"	109	"Chemama"				5																																																	1																				2.724303	36.373833
390	390	"Dra el Halhal"	"Dra el Halhal/Dra el Helhal"	25	"Mouzaïa"	109	"Chemema/Chemama"	"Ben Amera"		17	9																																																	1																				2.730706	36.370516
391	391	"Talaoualen"	"Talaoualen"	25	"Mouzaïa"	109	"Chemama"				11																																																																					2.681083	36.367684
392	392	"Landgosa"	"Landgosa/Lendjassa"	25	"Mouzaïa"	110	"El Ksaimia/Guessaïmia"	"ouest Cheubet el Kbour, au-dessous chemin, est arbre (ormes), sud lieu appelé Enta Achoucht"		24	12																														1													1																										2.689533	36.404641
393	393	"Mehta el Hadj Mohamed bin Abrahim"	"Mehta el Hadj Mohamed bin Abrahim/Si Mohammed ben Matmor"	25	"Mouzaïa"	110	"El Ksaimia/Guessaïmia"	"est rivière, ouest ruisseau, au-dessus olivier suavage, en dessous idem"		13	8												1																									1																						1	1									2.704221	36.443003
394	394	"Elakarech"	"Elakarech/El Khereseb"	25	"Mouzaïa"	110	"El Ksaimia/Guessaïmia"	"ruisseau, sud Sidi Mehomer"		15	11						1																																																						1									2.713155	36.41952
395	395	"Barone"	"Barone/Dra Berouleh"	25	"Mouzaïa"	111	"Ouenfouf/Anfouf"	"est ravin, nord chemin, ouest lieu appelé Mazer Sadjel, sud Aïn"		15	8																														1																												1			1								2.724732	36.417857
396	396	"Bel Aadam"	"Bel Aadam"	26	"Hassen Ben Ali"	112	"Oulad Ferdjan"				30																																																																					3.005621	36.188041
397	397	"El Djema"	"El Djema"	26	"Hassen Ben Ali"	112	"Oulad Fergan/Oulad Ferdjan"	"au nord d'un jardin, à l'ouest de figuiers et à l'est d'un rocher"		16	32									1									1																				1															1																2.912491	36.160981
398	398	"Setalaïa"	"Setalaïa"	26	"Hassen Ben Ali"	112	"Oulad Ferdjan"				28																																																																					2.95516	36.177543
399	399	"Chaabet el Behaïl"	"Chaabet el Behaïl"	26	"Hassen Ben Ali"	112	"Oulad Ferdjan"				16																																																										1											2.920417	36.141764
400	400	"Taïch"	"Taïch"	26	"Hassen Ben Ali"	112	"Oulad Ferdjan"				18																																																																					2.999955	36.178413
401	401	"Sestan"	"Sestan"	26	"Hassen Ben Ali"	112	"Oulad Ferdjan"				92																																																																					3.029042	36.195563
402	402	"S. Kara Hessen"	"S. Kara Hessen"	26	"Hassen Ben Ali"	112	"Oulad Ferdjan"				7						1																																																															2.974267	36.18712
403	403	"Aïn Ameur"	"Aïn Ameur"	26	"Hassen Ben Ali"	112	"Oulad Fergan/Oulad Ferdjan"	"en venant du sud on trouve des gourbis et de l'est des rochers"		25	18															1	1																																					1								1								2.98261	36.189587
404	404	"Djeraf"	"Djeraf"	26	"Hassen Ben Ali"	112	"Oulad Ferdjan"				14																																																																					2.934997	36.153653
405	405	"Machem"	"Machem/El Mechessem"	26	"Hassen Ben Ali"	112	"Oulad Fergan/Oulad Ferdjan"	"à l'est une ferme et au-dessous se trouve un ravin"		15	18																	1																																									1											2.921278	36.135297
406	406	"Em Naoury"	"Em Naoury/Naouri"	26	"Hassen Ben Ali"	112	"Oulad Fergan/Oulad Ferdjan"	"au pied d'un fort mamelon au-dessus de gourbi et près d'un chemin (à l'est)"		17	66															1															1																			1																				2.98196	36.189238
407	407	"El Djebel"	"El Djebel"	26	"Hassen Ben Ali"	112	"Oulad Fergan/Oulad Ferdjan"	"au pied d'un mamelon, à l'est du ravin"		10	44																																																1	1									1											3.071019	36.202552
408	408	"El Biad"	"El Biad"	26	"Hassen Ben Ali"	112	"Oulad Ferdjan"				46																																																																					2.965214	36.163063
409	409	"Sidi Bongor"	"Sidi Bongor/Sid Bezor"	26	"Hassen Ben Ali"	112	"Oulad Fergan/Oulad Ferdjan"	"près d'un marabout, à l'est un jardin et des gourbis"		15	26						1									1	1		1						1																																													3.026434	36.189414
410	410	"El Khreliss"	"El Khreliss"	26	"Hassen Ben Ali"	112	"Oulad Ferdjan"				33																																																																					2.979749	36.197195
411	411	"Tizi Mouaratts"	"Tizi Mouaratts/Tiz Moherats"	26	"Hassen Ben Ali"	112	"Oulad Fergan/Oulad Ferdjan"	"au milieu de grands arbres au-dessous d'un gourbi, à l'est d'une rivière"		15	28															1																														1														1										3.049821	36.195054
412	412	"Hamidia"	"Hamidia"	26	"Hassen Ben Ali"	113	"Oulad Drif"	"limité à l'est par le chemin, à l'ouest par le mechta, au sud par les meules"			140																																																																					2.936638	36.216625
413	413	"Betherabin"	"Betherabin/Bederabin"	26	"Hassen Ben Ali"	113	"Oulad Drif"	"il y a deux arbres, au-dessous un ravin et au-dessus des broussailles"		20	130																																													1	1												1											3.088396	36.20376
414	414	"Dra el Ameur"	"Dra el Ameur/Draa el Hemour"	26	"Hassen Ben Ali"	113	"Oulad Drif"	"à l'ouest de ravin et d'un gourbi"		11	29															1																																		1									1											2.95791	36.257985
415	415	"El Gouïa"	"El Gouïa/Gouïa"	26	"Hassen Ben Ali"	113	"Oulad Drif"	"près du gourbi, lieu appelé Aïn el Djema, à l'est d'un chemin"		22	47									1						1															1																															1								2.951774	36.224064
416	416	"Mechta Mansour"	"Mechta Mansour"	26	"Hassen Ben Ali"	113	"Oulad Drif"				14												1																																																									2.917732	36.298149
417	417	"Mechta Sams"	"Mechta Sams"	26	"Hassen Ben Ali"	113	"Oulad Drif"				21												1																																																									2.962073	36.244618
418	418	"Mechta Lebiod"	"Mechta Lebiod"	26	"Hassen Ben Ali"	113	"Oulad Drif"				13												1																																																									3.004895	36.218548
419	419	"Aïn Semïa"	"Aïn Semïa"	26	"Hassen Ben Ali"	113	"Oulad Drif"				32																																																													1								2.935143	36.225526
420	420	"Aïn Aïet"	"Aïn Aïet/Aïn Aïad"	26	"Hassen Ben Ali"	113	"Oulad Drif"	"une mosquée, au-dessous un ravin"		12	70																							1																																			1			1								2.948994	36.307544
421	421	"Khrel Khroul"	"Khrel Khroul"	26	"Hassen Ben Ali"	113	"Oulad Drif"				20																																																																					2.984398	36.24366
422	422	"El Amdia"	"El Amdia/Bel Hamdia"	26	"Hassen Ben Ali"	113	"Oulad Drif"	"près d'un chêne vert au pied d'un petit mamelon"		15	11																																										1							1																				2.991499	36.214747
423	423	"Chaabet Daha"	"Chaabet Daha"	26	"Hassen Ben Ali"	113	"Oulad Drif"				60																																																										1											2.993762	36.214602
424	424	"Bou Zouïchin"	"Bou Zouïchin"	26	"Hassen Ben Ali"	114	"Oulad Brahim"				13																																																																					2.90976	36.290323
425	425	"Tesfaïn"	"Tesfaïn/Tassefaïn"	26	"Hassen Ben Ali"	114	"Oulad Brahim"	"entre deux ravins au-dessus et au-dessous de gourbis"		16	50															1	1																																										1											2.921441	36.270439
426	426	"El Houara"	"El Houara"	26	"Hassen Ben Ali"	114	"Oulad Brahim"				21																																																																					2.934053	36.269128
427	427	"El Gherghour"	"El Gherghour/Guergour"	26	"Hassen Ben Ali"	113	"Oulad Drif/Oulad Maïza"	"dans un jardin au-dessus d'un ravin et au pied d'un petit rocher"		25	26																		1																																								1											2.992084	36.247259
428	428	"Ras el Oued"	"Ras el Oued"	26	"Hassen Ben Ali"	115	"Oulad Maïza"				16																																																	1								1		1										2.931026	36.302464
429	429	"Mechta el Hadja"	"Mechta el Hadja"	26	"Hassen Ben Ali"	116	"Oulad Melal"				23												1																																																									2.929795	36.1773
430	430	"Aïn Blelel"	"Aïn Blelel/Aïn Belal"	26	"Hassen Ben Ali"	116	"Oulad Melal"	"au milieu des gourbis, au-dessus d'une ?ravin?, près d'un chêne vert"		14	5															1	1																										1											1								1								2.884285	36.200987
431	431	"Marset"	"Marset/Mersit"	26	"Hassen Ben Ali"	116	"Oulad Melal"	"à la tête de la rivière, près d'un grange/dans les arbres, au-dessous d'un ravin, au nord d'un jardin"		50	26																		1									1																		1													1	1										2.915901	36.168098
432	432	"Aouch el Egeb"	"Aouch el Egeb/Ouch el Agab"	26	"Hassen Ben Ali"	117	"El Kraba/Keraba"	"au-dessous d'un rocher"		15	27											1																																										1																2.880456	36.273127
433	433	"Aouch el Ghedes"	"Aouch el Ghedes/Tegas"	26	"Hassen Ben Ali"	117	"El Kraba/Keraba"	"au milieu des gourbis"		16	16											1				1	1																																																					2.876027	36.262118
434	434	"Zaouïa"	"Zaouïa"	26	"Hassen Ben Ali"	117	"Keraba"				29																																																																					2.904441	36.225175
435	435	"Melouan"	"Melouan"	26	"Hassen Ben Ali"	117	"Keraba"				18																																																																					2.862709	36.227022
436	436	"Haouch ben Yhia"	"Haouch ben Yhia"	26	"Hassen Ben Ali"	117	"Keraba"				21																																																																					2.81514	36.235012
437	437	"Dar Chaoura"	"Dar Chaoura"	26	"Hassen Ben Ali"	117	"Keraba"				6														1																																																							2.892815	36.234023
438	438	"Haouch Hozza"	"Haouch Hozza"	26	"Hassen Ben Ali"	117	"Keraba"				21																																																																					2.854714	36.257615
439	439	"Mechta ben Medjeber"	"Mechta ben Medjeber/Haouch Medjebeur"	26	"Hassen Ben Ali"	117	"El Kraba/Keraba"	"au pied d'un rocher et près des gourbis"		25	33												1			1	1																																					1																2.8269	36.278753
440	440	"Kef el Abous"	"Kef el Abous/Kaf el Hebour"	26	"Hassen Ben Ali"	117	"El Kraba/Keraba"	"au pied des gourbis et d'un rocher"		12	13															1	1																																			1		1																2.863642	36.198133
441	441	"Aouch ben Chaben"	"Aouch ben Chaben/Habuh ben Chaben"	26	"Hassen Ben Ali"	117	"El Kraba/Keraba"	"au nord de gourbi au-dessus d'un jardin et au-dessous d'un rocher"		10	28											1				1			1																																			1																2.851821	36.23724
442	442	"Silos du Caïd"	"Silos du Caïd"	27	"Gribs"	118	"Oulad El Madjoub"	"Hors de sa ferme, lieu appelé Aicha bent Nisalance el Gada - est chemin, ouest rocher, nord mamelon - au sud gourbi"		35				1												1		1													1																			1				1																2.514696	36.071623
443	443	"Lenda"	"Lenda"	27	"Gribs"	118	"Oulad El Madjoub"	"gourbi, du nord jardin de figuiers, est chemin, du sud rocher."		70																1			1												1								1															1																2.521794	36.066872
444	444	"Dra ben Smouch"	"Dra ben Smouch"	27	"Gribs"	118	"Oulad El Madjoub"	"du ouest resin de ben Anul, du nord jardin, est mamelon, du sud chemin"		90																			1												1																			1																				2.523049	36.109712
445	445	"Kretza"	"Kretza"	27	"Gribs"	118	"Oulad El Madjoub"	"de l'est gourbi, du nord jardin, ouest jardin, sud la rivière Begra"		90																1			1																																									1										2.515891	36.079347
446	446	"El Meumia"	"El Meumia"	27	"Gribs"	118	"Oulad El Madjoub"	"de l'ouest le gourbi de Mdassi, est la maison du cheikh, du nord chemin, du sud mamelon"		40					1										1	1															1																			1																				2.579994	36.109767
447	447	"Mechta bel Amar"	"Mechta bel Amar"	27	"Gribs"	118	"Oulad El Madjoub"	"du nord Aïn Sferfa. Ouest jardin de figuiers. De l'est chemin, sud des arbres (oliviers)"		60													1						1																			1	1																							1								2.522947	36.105392
448	448	"Oulad Gerïb el Madjan"	"Oulad Gerïb el Madjan"	27	"Gribs"	118	"Oulad El Madjoub"	"Zitouni, de l'ouest amandiers, nord jardin de figuiers, est buisson, sud gourbi -- (?Zoub ben Sadek) de l'ouest chemin"		87																1															1						1	1	1																															2.514791	36.115343
449	449	"Znounïa"	"Znounïa"	27	"Gribs"	118	"Oulad El Madjoub"	"du nord fontaine et peupliers, est jardin, sud ferme"		45																		1	1																										1																		1							2.539579	36.099245
450	450	"Oued Krit"	"Oued Krit"	27	"Gribs"	119	"Endifa"	"de l'ouest la plaine, du nord jardin, est gard et peupliers, du sud mehta."		90													1						1																										1													1							1					2.505787	36.186465
451	451	"Si Abdel Baki"	"Si Abdel Baki"	27	"Gribs"	119	"Endifa"	"dans sa ferme"		9							1											1																																																				2.482497	36.151271
452	452	"Mehta bou Chama"	"Mehta bou Chama"	27	"Gribs"	119	"Endifa"	"dans sa ferme, du sud jardin, est ravin, nord fleuri et chemin, sud gourbi"		16													1			1		1	1												1																																							2.502596	36.172757
453	453	"Sidi Jakouk"	"Sidi Jakouk"	27	"Gribs"	119	"Endifa"	"est arbre, nord ravin, ouest ravin, sud mosquée"		99							1																	1																						1													1											2.497194	36.172935
454	454	"Dru el Louz (chez le cheick Attassa)"	"Dru el Louz (chez le cheick Attassa)"	27	"Gribs"	119	"Endifa"	"sans sa ferme, ouest oliviers sauvages, nord ravin, est marché du vendredi, sud la plaine"		12					1													1									1											1																					1						1					2.468599	36.178602
455	455	"Sid el Grebi"	"Sid el Grebi"	27	"Gribs"	120	"Oulad Magel et Oulad Sidi Mohamed"	"ouest la plaine, du nord gourbi, est ravin et peupliers, sud chemin"		63							1									1															1														1														1						1					2.51934	36.16888
456	456	"Azeba"	"Azeba"	27	"Gribs"	120	"Oulad Magel et Oulad Sidi Mohamed"	"de l'ouest mamelon, nord ravin, est jardin, sud jardin"		51																			1																															1									1											2.558656	36.162036
457	457	"Mechager"	"Mechager"	27	"Gribs"	120	"Oulad Magel et Oulad Sidi Mohamed"	"du sud jardin, est mamelon, nord ravin, ouest gourbi"		22																1	1		1																															1									1	1										2.553203	36.12728
458	458	"Litou"	"Litou"	27	"Gribs"	120	"Oulad Magel et Oulad Sidi Mohamed"	"Ben Souna, de l'ouest rescide el Guetra. Nord oued, est jardin, sud ravin"		18																			1																																								1	1										2.537881	36.141827
459	459	"Macheta"	"Macheta"	27	"Gribs"	120	"Oulad Magel et Oulad Sidi Mohamed"	"du sud gourbi, nord jardin, ouest noueder, est mosquée"		84													1			1			1					1																																														2.542873	36.143844
460	460	"Sidi el Madi"	"Sidi el Madi"	27	"Gribs"	120	"Oulad Magel et Oulad Sidi Mohamed"	"est petit mamelon, nord olivier sauvage, ouest le Chelif, sud idem"		26							1																																																															2.524322	36.148739
461	461	"Cheubet Barkat"	"Cheubet Barkat"	27	"Gribs"	120	"Oulad Magel et Oulad Sidi Mohamed"	"ouest eboulement de ?focerres, sud noueder, est gourbi Mohamed ben Abdallah, nord gourbis"		25																1	1					1																																					1											2.543299	36.134163
462	462	"Kef Sidi Peudjel"	"Kef Sidi Peudjel"	27	"Gribs"	120	"Oulad Magel et Oulad Sidi Mohamed"	"du sud le Chelif, nord rocher, ouest rocher, est la plaine"		88																																																				1		1						1					1					2.523996	36.173175
463	463	"Sous sa ferme/Saffat Arbifi"	"Sous sa ferme/Saffat Arbifi"	27	"Gribs"	120	"Oulad Magel et Oulad Sidi Mohamed"	"Si Kouider ben Kerichi (Khalifa fi Bled Amora Beylek)"		6							1							1				1																																																	2.509722	36.196667	"B"	2.509722	36.196667
464	464	"El Medoues"	"El Medoues"	27	"Gribs"	120	"Oulad Magel et Oulad Sidi Mohamed"			46																																																																						2.553848	36.160201
465	465	"Sidi Khlifa"	"Sidi Khlifa"	27	"Gribs"	120	"Oulad Magel et Oulad Sidi Mohamed"	"de l'ouest noueder, nord jardin, sud cimetière, est marabout"		52							1												1			1			1	1																																												2.556309	36.147851
466	466	"Be Saal"	"Be Saal"	27	"Gribs"	120	"Oulad Magel et Oulad Sidi Mohamed"	"du sud gourbi, ouest ravin, est rocher, nord rocher"		57																1																																						1					1											2.565609	36.160919
467	467	"Khlifa"	"Khlifa"	27	"Gribs"	120	"Oulad Magel et Oulad Sidi Mohamed"	"nord Dra (montagne), est ferme, sud noueder, ouest olivier"		20																		1				1																1											1																					2.528805	36.130438
468	468	"Mechta Ouled Aïssa"	"Mechta Ouled Aïssa"	27	"Gribs"	122	"Beni Rached"	"de l'ouest mamelon, sud ferme, nord jardin, est jardin"		113													1					1	1																															1																				2.4699	36.124261
469	469	"Renadjee"	"Renadjee"	27	"Gribs"	122	"Beni Rached"	"Mohamed bn Taïb, sud noueder, ouest chemin, nord fermes, est gourbi"		80																1		1																																																				2.438834	36.063799
470	470	"Matmora Mokrazi"	"Matmora Mokrazi"	27	"Gribs"	122	"Beni Rached"	"de l'ouest gourbi de Si Brahim, en dessous noueder, est gourbi, sud plaine"		23							1									1	1						1																																										1					2.463156	36.092885
471	471	"Ehaïa"	"Ehaïa"	27	"Gribs"	122	"Beni Rached"	"est ferme, sud noueder, en est chemin, nord plaine"		29																		1				1									1																																		1					2.443999	36.071671
472	472	"Mehta el Hadj Aïa"	"Mehta el Hadj Aïa"	27	"Gribs"	122	"Beni Rached"	"sud noueder, ouest jardin, en dessous la plaine, est plaine"		10													1						1																																														1					2.48052	36.064447
473	473	"Mehta Oulad Ameur"	"Mehta Oulad Ameur"	27	"Gribs"	122	"Beni Rached"	"sud gourbi Abdelkader bel Arbi, est mehta el Hadj Ahmed bel Djelali, nord noueder, ouest neder."		104													1			1																																																						2.502497	36.118769
474	474	"El Oghichta"	"El Oghichta"	27	"Gribs"	122	"Beni Rached"	"ouest noueder, nord ferme, sud jardin, est figuier"		40																		1	1			1																	1																															2.493114	36.09976
475	475	"Agha Ameur"	"Agha Ameur"	27	"Gribs"	122	"Beni Rached"	"dans sa ferme"		50			1															1																																																				2.490167	36.063602
476	476	"Aïn el Khok"	"Aïn el Khok"	27	"Gribs"	122	"Beni Rached"	"ouest noueder, nord gourbi, ouest jardin, est chemin"		100																1			1			1									1																															1								2.474002	36.122379
477	477	"Metidja"	"Metidja"	27	"Gribs"	122	"Beni Rached"	"est mamelon, sud peupliers, ouest gourbi au-dessous le chemin"		60																1															1														1					1															1					2.481993	36.144975
478	478	"Mechta el Bessara"	"Mechta el Bessara"	27	"Gribs"	122	"Beni Rached"	"Beseri. Ouest jardin, est noueder, au-dessous la plaine, sud ravin"		40													1						1																																								1						1					2.456268	36.07335
479	479	"Mnem Ouled ben Sidou"	"Mnem Ouled ben Sidou"	27	"Gribs"	122	"Beni Rached"	"Oulad ben Sidou, ouest chemin, sud jardin, au-dessus d'un jardin, est jardin et ravin"		88																			1												1																												1											2.494643	36.065075
480	480	"Eddrak"	"Eddrak"	27	"Gribs"	122	"Beni Rached"	"du sud mamelon, nord ferme, est chemin, ouest jardin"		21																		1	1												1																			1																				2.483913	36.129646
481	481	"Botha"	"Botha"	22	"Ouzera"	84	"Ouzera El Gzaba"	"Ali Ben Taleb, en dessus marabout, nord gourbi, est arbres"	"Named person assumed to have a gourbi in this case."	16																1	1								1																					1																								2.778865	36.370501
482	482	"El Gerhzarza"	"El Gerhzarza"	22	"Ouzera"	84	"Ouzera El Gzaba"	"Mohamed Ben Saïd, ouest ravin, sud gourbi, sud Tamet el Bis"	"Named person assumed to have a gourbi in this case."	8																1	1																													1													1											2.784601	36.343773
483	483	"El Gerhzarza"	"El Gerhzarza"	22	"Ouzera"	84	"Ouzera El Gzaba"	"Abd el Kader Ben Mohamed, est Kbarer, ouest gourbi, sud chemin"	"Named person assumed to have a gourbi in this case."	4																1	1														1																																							2.790136	36.350901
484	484	"Matraï"	"Matraï"	22	"Ouzera"	83	"Cheraga"	"El Hadj Ali, ouest ruisseau, sud arbre"	"Named person assumed to have a gourbi in this case."	20																1																														1															1									2.922002	36.306748
485	485	"Baziz"	"Baziz"	25	"Mouzaïa"	103	"Tadinart"	"au-dessus le marabout, au-dessous chemin, en venant de l'ouest ?? El Aïn Ilabib, est jardin"		13																			1						1						1																															1								2.749602	36.358561
487	487	"El Fers el Kbir"	"El Fers el Kbir"	25	"Mouzaïa"	105	"Bou Alaoum"	"au milieu des maisons, au-dessus chênes verts, en dessous jardin, ouest cherbet sandal, est vigne"	"Flagged as house presence plus multiple gourbis to indicate numbers."	4															1		1		1																1								1																											2.705964	36.330731
488	488	"El Anadeke"	"El Anadeke"	25	"Mouzaïa"	109	"Chemema"	"est Al Fith, nord Lourzaïa, ouest Sidi Amed ben Ali, sud Sagio"		11							1																																																															2.729064	36.375852
489	489	"El Ghereb"	"El Ghereb"	25	"Mouzaïa"	109	"Chemema"	"est Oued El Kbir, nord Khian ben Firaa, ouest arbres Karoubies, sud Coudet Brahim."		9																																										1							1											1										2.723325	36.386486
490	490	"Eghil"	"Eghil"	25	"Mouzaïa"	109	"Chemema"	"El Kbera, sud pierres Sifoun"		9																																																						1																2.690456	36.376609
491	491	"Tala Oulmath"	"Tala Oulmath"	25	"Mouzaïa"	110	"El Ksaimia"	"en dessous lieu appelé Magram Chaob, ouest ravin, est rivière, sud olivier sauvage"		17																																						1																					1	1										2.656023	36.43016
492	492	"Oulad Si Ameur Bou Etratan"	"Oulad Si Ameur Bou Etratan"	25	"Mouzaïa"	110	"El Ksaimia"	"ouest ravin, est oliviers sauvage, au-dessus le gourbi du Cheikh, en dessous ravin."		7					1											1																						1																					1											2.704796	36.393456
493	493	"Ghiem el Hadj Ameur Ben Houech"	"Ghiem el Hadj Ameur Ben Houech"	25	"Mouzaïa"	110	"El Ksaimia"	"entouré de haies"		6																													1																																									2.699038	36.425813
494	494	"Tazemourt"	"Tazemourt"	25	"Mouzaïa"	110	"El Ksaimia"	"en dessous jardin, au-dessus mamelon, ouest lieu appelé Gho Sokra, est ravin"		13																			1																															1									1											2.763659	36.399132
495	495	"Djessen Sba"	"Djessen Sba"	25	"Mouzaïa"	106	"Oulad Eussen"	"est jardin, en dessous l'on appelé Gnotisj, ouest gourbi, au dessus mamelon"		6																1			1																															1																				2.67809	36.350286
496	496	"Tessa"	"Tessa"	25	"Mouzaïa"	106	"Oulad Eussen"	"en dessous jardin, est olivier sauvage, au-dessus chemin, ouest ruisseau"		12																			1												1							1																							1									2.731444	36.348371
497	497	"Tamentkourt"	"Tamentkourt"	25	"Mouzaïa"	107	"El Fkaïlia"	"au-dessous d'un petit mamelon, en dessous chemin, est Ghrem Seknen"		18																															1																			1																				2.65342	36.44972
498	498	"(dans leur gourbis)"	"(dans leur gourbis)"	23	"Aouaras"	86	"Oulad Beghti Ben Amar"	"en venant du nord une fontaine, de l'ouest un ravin de l'est un rocher"		44																1	1																																					1					1				1							2.801036	36.188447
499	499	"(au dessous des gourbis)"	"(au dessous des gourbis)"	23	"Aouaras"	86	"Oulad Beghti Ben Amar"	"en venant du nord des arbres, sud un jardin, à l'est un rocher, à l'ouest un petit ravin"		22																1	1		1																											1								1					1											2.811155	36.188521
500	500	"Oulad Ezholes"	"Oulad Ezholes"	23	"Aouaras"	88	"Oulad Saoud"	"de l'ouest un rocher, est gourbi, nord grand arbre, sud rocher"		5																1																														1								1																2.763912	36.184353
501	501	"Sidi Enssen"	"Sidi Enssen"	23	"Aouaras"	87	"El Oueta"	"nord mosquée, ouest mamelon, est arbre, sud mamelon assez fort"		5							1																	1																						1				1																				2.882243	36.153832
502	502	"Dohtan"	"Dohtan"	23	"Aouaras"	87	"El Oueta"	"au sud Aïn Euza, à l'ouest un figuier sauvage"		46																																							1																							1								2.819946	36.14463
503	503	"El Noueder"	"El Noueder"	21	"Mehamedia"	79	"Hannacha"	"à l'ouest un gourbi et un rocher, au-dessous d'un mamelon, au nord d'un jardin"		30																1			1			1																												1				1																2.603028	36.177461
504	504	"El Oumkaka"	"El Oumkaka"	28	"Ouamri"	124	"Oulad Dilmi"	"du sud un rocher, est rivière, ouest jardin au-dessous un marabout"		10																			1						1																													1						1										2.685404	36.22187
505	505	"Oulad Ben Alia"	"Oulad Ben Alia"	28	"Ouamri"	124	"Oulad Dilmi"	"Sidi Zieter, en venant du sud un marabout, est un gourbi au-dessous un rocher, ouest un chemin"		20							1									1									1						1																							1																2.630615	36.240977
506	506	"Bel Aïn ben Jussef"	"Bel Aïn ben Jussef"	28	"Ouamri"	124	"Oulad Dilmi"	"Si Boudja, en venant du sud un gourbi, est un arbre au-dessous un jardin, ouest un rocher."		15							1									1			1																																			1																2.618743	36.283425
507	507	"Amouda ben Amor"	"Amouda ben Amor"	28	"Ouamri"	124	"Oulad Dilmi"	"Gasa Mehta bel Arbi, du sud un ravin, de l'est un chemin, au-dessous un chemin, de l'ouest un ravin à pic."		8													1																		1																												1											2.620816	36.24908
508	508	"Raminia"	"Raminia"	28	"Ouamri"	124	"Oulad Dilmi"	"Sidi Nibarck. Du sud un palch ravin, de l'est un gourbi, de l'ouest un ravin"		10							1									1																																											1											2.636168	36.295967
509	509	"Caïd Mohemed Ben Cholabi"	"Caïd Mohemed Ben Cholabi"	28	"Ouamri"	124	"Oulad Dilmi"	"Gadet il Geran. Du sud petit rocher eboulement de pierres au-dessous un ravin à pic, à l'ouest un jardin"		50				1															1																																			1					1											2.609948	36.262182
510	510	"Hamed ben Fares el Adri"	"Hamed ben Fares el Adri"	28	"Ouamri"	124	"Oulad Dilmi"	"du sud ravin à pic, de l'est mamelon au-dessous un plateau, à l'ouest un mamelon"		25																																																		1	1								1											2.611683	36.227528
511	511	"Oulad Memi el Adri"	"Oulad Memi el Adri"	28	"Ouamri"	124	"Oulad Dilmi"	"du sud rocher, de l'est ravin au dessous un gourbi, à l'ouest (noueder) Madi Paiha"		12																1						1																																1					1											2.620739	36.231476
512	512	"Oulad Khalifa"	"Oulad Khalifa"	28	"Ouamri"	124	"Oulad Dilmi"	"Gadet Leroieis, du sud un petit plateau, de l'est un gourbi, du dor (noueder), à l'ouest eboulement de rochers"		17																1						1																													1			1																2.648594	36.312044
513	513	"Mamer Ben Heressa"	"Mamer Ben Heressa"	28	"Ouamri"	125	"Oulad Djouza"	"Enslari el Marouf, du sud gourbi, de l'est rocher, du nord petit montagne, ouest noeder"		10																1						1																											1					1																2.570254	36.269576
514	514	"Oulad Bin Souna"	"Oulad Bin Souna"	28	"Ouamri"	125	"Oulad Djouza"	"El Ouchera, sud gourbi, est rivière, nord rocher, ouest gourbi"		8																1	1																																					1						1										2.580628	36.287989
515	515	"Dra Essia"	"Dra Essia"	28	"Ouamri"	125	"Oulad Djouza"	"Sidi Mansour, de l'est eboulements de rochers, nord marabout, ouest grosse pierre, sud idem."		20							1																		1																									1				1																2.584029	36.302969
516	516	"Oulad Eurez"	"Oulad Eurez"	28	"Ouamri"	125	"Oulad Djouza"	"Desilia, du sud gourbi, est rivière, nord rivière, ouest rivière"		7																1																																												1										2.602414	36.317907
517	517	"El Farsi"	"El Farsi"	28	"Ouamri"	125	"Oulad Djouza"	"Mechta ben Kali, du sud un mur de jardin, est noueder, nord ravin, ouest petit montagne"		15													1						1			1																											1										1											2.609482	36.28364
518	518	"Baba ben Amar"	"Baba ben Amar"	28	"Ouamri"	125	"Oulad Djouza"	"El Aouihat, en venant du sud amandier, est figuier, du nord arbre, ouest broussailles"		17																																					1		1							1	1																							2.574913	36.276747
519	519	"Marabout Sidi Zekri"	"Marabout Sidi Zekri"	28	"Ouamri"	126	"Oulad Moussa"	"sud gourbi, est jardin, nord chemin, ouest noueder"		24							1									1			1			1									1																																							2.571046	36.237694
520	520	"Si el Morsah bel Abdel Baki"	"Si el Morsah bel Abdel Baki"	28	"Ouamri"	126	"Oulad Moussa"	"du sud maison, de l'est gourbi, nord noueder, ouest arbre"		15							1								1	1						1																								1																								2.524233	36.228448
521	521	"Gholaa"	"Gholaa"	28	"Ouamri"	126	"Oulad Moussa"	"El Godi, du sud rocher, est gourbi, nord gourbi, ouest eboulement de pierres"		16																1	1																																					1																2.527759	36.2054
522	522	"Oulad Zin"	"Oulad Zin"	28	"Ouamri"	126	"Oulad Moussa"	"Sidi Mohamed ben Aouda, sud le Chelif, est chemin, nord ravin, ouest ravin"		24							1																								1																												1	1										2.553958	36.23283
523	523	"El Hadj el Milsioni"	"El Hadj el Milsioni"	28	"Ouamri"	126	"Oulad Moussa"	"Aïn Goba, du sud ravin, est ravin"		17																																																											1			1								2.583373	36.219061
524	524	"Beylek"	"Beylek"	28	"Ouamri"	126	"Oulad Moussa"	"?Iretelass, du sud ravin, est Sidi Abdelkader, nord noueder, ouest mamelon/Aïn Simaïa enta Dra Isis, sud jardin, est jardin, nord chemin, ouest ravin"		15							1							1					1			1									1																												1			1					2.517667	36.202864	"C"	2.517667	36.202864
525	525	"Oulad Moussa"	"Oulad Moussa"	28	"Ouamri"	126	"Oulad Moussa"	"Gadet el Jihairi, du sud petite plaine, est ravin, nord arbres, ouest rochers/Sffaf Beïyit, est chemin, nord petite montagne, sud idem, ouest idem"		35																															1														1	1			1																1					2.559803	36.232775
526	526	"El Beida"	"El Beida"	26	"Hassen Ben Ali"	112	"Oulad Fergan"	"près de grands arbres, à l'est un puits, à l'ouest un ravin"		24																					1																									1													1											2.984469	36.164731
527	527	"El Ghlana"	"El Ghlana"	26	"Hassen Ben Ali"	112	"Oulad Fergan"	"à l'est un ravin et au-dessus un mamelon"		17																																																		1									1											2.940865	36.175438
528	528	"Aïn Tolakmin"	"Aïn Tolakmin"	26	"Hassen Ben Ali"	112	"Oulad Fergan"	"au nord de gourbi et au-dessous d'un petit jardin à l'ouest et près d'un jardin"		25																1			1																																											1								2.944791	36.200236
529	529	"Aouch el Betesna"	"Aouch el Betesna"	26	"Hassen Ben Ali"	112	"Oulad Fergan"	"à l'ouest et près d'un jardin"		10												1							1																																																			2.938294	36.152839
530	530	"Sidi Amer"	"Sidi Amer"	26	"Hassen Ben Ali"	112	"Oulad Fergan"	"au-dessus de gourbis, à l'est d'un mamelon"		15							1									1	1																																	1																				2.922304	36.166452
531	531	"Ben Kassem"	"Ben Kassem"	26	"Hassen Ben Ali"	112	"Oulad Fergan"	"au-dessous d'une ferme, au-dessus un rocher et près d'un jardin"		16																		1	1																																			1																3.067188	36.1957
532	532	"Zekar"	"Zekar"	26	"Hassen Ben Ali"	117	"El Kraba"	"au-dessous d'un jardin à l'ouest des gourbis"		20																1	1		1																																																			2.852291	36.196418
533	533	"Noueder"	"Noueder"	26	"Hassen Ben Ali"	117	"El Kraba"	"?Olives sous des amandiers"		25																						1															1	1																																2.880197	36.278247
534	534	"Aouch Tedjeroni"	"Aouch Tedjeroni"	26	"Hassen Ben Ali"	117	"El Kraba"	"au-dessous de gourbis entoures d'amandiers"		10												1				1	1																				1																																	2.846543	36.218793
535	535	"Chehbet Chaouch"	"Chehbet Chaouch"	26	"Hassen Ben Ali"	117	"El Kraba"	"au-dessous de gourbis"		15						1										1	1																																																					2.866031	36.286153
536	536	"Haouch el Heura"	"Haouch el Heura"	26	"Hassen Ben Ali"	117	"El Kraba"			10																																																																						2.878725	36.212315
537	537	"Aouch Telemhu"	"Aouch Telemhu"	26	"Hassen Ben Ali"	117	"El Kraba"	"entre des gourbis"		15												1				1	1																																																					2.832059	36.280722
538	538	"Haouch bel Hadj Cessen"	"Haouch bel Hadj Cessen"	26	"Hassen Ben Ali"	117	"El Kraba"	"entre des gourbis"		20												1				1	1																																																					2.868731	36.213354
539	539	"Oulad Sidi Ali Ben Mohamed"	"Oulad Sidi Ali Ben Mohamed"	26	"Hassen Ben Ali"	117	"El Kraba"	"au-dessus d'un marabout"		10																									1																																													2.831885	36.273711
540	540	"Oulad el Meïza"	"Oulad el Meïza"	26	"Hassen Ben Ali"	117	"El Kraba"	"entre les gourbis, à l'ouest de la rivière"		30																1	1																																											1										2.836771	36.249073
541	541	"Noury"	"Noury"	26	"Hassen Ben Ali"	113	"Oulad Drif"	"au-dessus des gourbis"		17																1	1																																																					2.918432	36.227706
542	542	"Bel Mrana"	"Bel Mrana"	26	"Hassen Ben Ali"	113	"Oulad Drif"	"au-dessus d'un ravin, au nord d'une fontaine et d'un jardin"		16																			1																																								1				1							2.937574	36.240954
543	543	"Noutia Ladger"	"Noutia Ladger"	26	"Hassen Ben Ali"	116	"Oulad Melal"	"au milieu des chênes verts"		15																																																																						2.93437	36.197041
544	544	"Bir Lalhar"	"Bir Lalhar"	26	"Hassen Ben Ali"	116	"Oulad Melal"	"à l'est un mamelon, à l'ouest un jardin"		25																			1																															1																				2.89008	36.193768
545	545	"El Djessen"	"El Djessen"	26	"Hassen Ben Ali"	114	"Oulad Brahim"	"entre des gourbis"		17																1	1																																																					2.941433	36.263029
546	546	"Tesouichin"	"Tesouichin"	26	"Hassen Ben Ali"	114	"Oulad Brahim"	"entouré de jardins"		12																			1																																																			2.915675	36.263218
547	547	"Sedraïa"	"Sedraïa"	29	"Beni Bou Yacoub"	127	"Oulad Turci"	"au milieu de ?? gourbi à 20 metres d'un jardin"		4																1			1																																																			3.140963	36.21723
548	548	"Oulad Tumé"	"Oulad Tumé"	29	"Beni Bou Yacoub"	127	"Oulad Turci"	"?Dout ?if ?Souk situés au-dessous de la route qui conduit au marché de Teltata au nord d'Aïn Aissa et non loin de quleques jardins de figuiers"		13																			1								1			1									1																							1								3.13238	36.219961
549	549	"Oulad Rahmoun"	"Oulad Rahmoun"	29	"Beni Bou Yacoub"	127	"Oulad Turci"	"près de Medja Tolla et du jardin du Oulad el Hadj"		28																			1																																																			3.11099	36.233849
550	550	"Regada"	"Regada"	29	"Beni Bou Yacoub"	127	"Oulad Turci"	"dans un lieu appelé Saffa au-dessous de la route qui conduit au marché de la tribu, non loin sud d'Aïn Regada"		19																											1			1																																1								3.137727	36.220843
551	551	"Aïn Saïd"	"Aïn Saïd"	29	"Beni Bou Yacoub"	128	"Oulad Maguebel"	"au milieu des gourbis et près de plusieurs jardins et de l'habitation du Cheikh Abdel Rhaman"		30					1										1	1	1		1																																											1								3.019506	36.287948
552	552	"Oulad Gassem"	"Oulad Gassem"	29	"Beni Bou Yacoub"	128	"Oulad Maguebel"	"au milieu des gourbi et près de l'Oued Haoual"		16																1	1																																											1										3.012094	36.286966
553	553	"Choubat Chouch"	"Choubat Chouch"	29	"Beni Bou Yacoub"	128	"Oulad Maguebel"	"près d'un bouquet de chêne liege."		28																																											1																											3.048444	36.283947
554	554	"El Allalia"	"El Allalia"	29	"Beni Bou Yacoub"	128	"Oulad Maguebel"	"au-dessous d'un mamelon près du rocher de Rabah ben Alla"		5																																																		1				1																2.997318	36.283819
555	555	"El Djema"	"El Djema"	29	"Beni Bou Yacoub"	129	"Maraboutin"	"près du bordj de l'ancien Kadi Hadj et au milieu des jardins"		10								1	1	1									1																																																			3.085308	36.226933
556	556	"Zaga Cher Oulad el Kherat"	"Zaga Cher Oulad el Kherat"	29	"Beni Bou Yacoub"	129	"Maraboutin"	"près d'un ravin limitrophés au Beni Lilini"		43																																																											1											3.09078	36.22794
557	557	"El Aouch"	"El Aouch"	29	"Beni Bou Yacoub"	129	"Maraboutin"	"près de trois trembles et d'Aïn el Kherba, face à une plaine"		54																																1													1																	1			1					3.063411	36.242736
558	558	"El Hedjar"	"El Hedjar"	29	"Beni Bou Yacoub"	130	"Oulad Ali"	"entre deux routes dont l'une conduit au Dechera, l'autre à l'Oued Lakhera et au nord par le Dechera d'Haddadan"		16											1																																																	1										3.037035	36.316742
559	559	"Zigugen"	"Zigugen"	29	"Beni Bou Yacoub"	130	"Oulad Ali"	"près du Kef Aïouch entre deux mamelons, au milieu d'un Cheubas"		10																																																		1		1																		3.050078	36.309223
560	560	"El Amara"	"El Amara"	29	"Beni Bou Yacoub"	131	"Ferma"	"au milieu du dechera des Oulad Aïssa près d'un cimetière appelé Sidi Zernaune et Aïn el Guerant"		21							1				1															1																																				1								2.9698	36.287932
561	561	"Cadiat Mobat el Djemel"	"Cadiat Mobat el Djemel"	29	"Beni Bou Yacoub"	132	"Sidi Bou Narri"	"au sommet d'un mamelon faisant face au mamelon d'Aïn el Homera"		10																																																		1												1								3.010305	36.315777
562	562	"Dra Sedjera el Merabta"	"Dra Sedjera el Merabta"	29	"Beni Bou Yacoub"	132	"Sidi Bou Narri"	"près d'un bocer de chênes liège et près d'une ravin appelé Chubat el Archa"		25																																											1							1									1											3.014037	36.311088
563	563	"Hozam el Aojer"	"Hozam el Aojer"	29	"Beni Bou Yacoub"	132	"Sidi Bou Narri"	"près de dechera et de Ouad el Touatoue"		5											1																																																	1										2.979494	36.332637
564	564	"Oublial"	"Oublial"	29	"Beni Bou Yacoub"	133	"Oulad Bedarna"	"près de la grande route et du marché et non loin de la dechera de Saadim et d'un ravin"		23											1																1			1																													1											2.994734	36.338269
565	565	"Ouaital Chedjour"	"Ouaital Chedjour"	29	"Beni Bou Yacoub"	134	"Oulad Ameur"	"près des ravins Cheubar el Djemaïa et Djenan Hameyé"		9																				1																																							1											3.038295	36.344307
566	566	"Bou Dinars"	"Bou Dinars"	29	"Beni Bou Yacoub"	135	"Medala"	"au milieu des gourbis de Si Taheur entouré de jardins"		20																1	1		1																																																			3.058523	36.252369
567	567	"Si el Gebour"	"Si el Gebour"	29	"Beni Bou Yacoub"	135	"Medala"	"au-dessous du marabout de Sidi el Ouenassen et de la Djema el Charef"		95							1			1															1																																													3.032881	36.234783
568	568	"Anmghercer"	"Anmghercer"	29	"Beni Bou Yacoub"	135	"Medala"	"au-dessous du mamelon appelé Dra Sidi Ali"		22																																																		1																				3.020452	36.258188
569	569	"El Bourné"	"El Bourné"	29	"Beni Bou Yacoub"	135	"Medala"	"sur la route Oued el Bessbasse dans la plaine eu milieu des brousailles près d'un ravin"		40																														1																	1												1	1					1					3.008102	36.252621
570	570	"Kef Bou Abda"	"Kef Bou Abda"	29	"Beni Bou Yacoub"	135	"Medala"	"près d'Aïn el Adjer et du dechera des Oulad Cahadi"		4											1																																									1										1								3.053249	36.24813
571	571	"Aïn el Djema"	"Aïn el Djema"	29	"Beni Bou Yacoub"	135	"Medala"	"près de l'habitation du Cheikh de la fraction, près de plusieurs jardins du marabout"		8					1					1					1				1						1																																					1								3.052586	36.267003
572	572	"Battaya"	"Battaya"	24	"Righas"	99	"Oulad Aïssa"	"près du lieu appelé Aïn Djemen"		16																																																														1								2.712082	36.21912
574	574	"El Gaad"	"El Gaad"	24	"Righas"	101	"Oulad Ben Adi"	"entre un figuier et des gourbis"		16																1	1																						1												1																			2.690996	36.116112
575	575	"Beni el Djenininat"	"Beni el Djenininat"	24	"Righas"	101	"Oulad Ben Adi"			6																																																																						2.704251	36.127052
576	576	"El Mechta"	"El Mechta"	24	"Righas"	101	"Oulad Ben Adi"	"au milieu d'un bouquet de chênes verts"		7													1																														1																											2.700711	36.147999
577	577	"Lolhcem"	"Lolhcem"	24	"Righas"	101	"Oulad Ben Adi"	"entre des gourbis et des chênes verts"		24																1	1																										1																											2.70078	36.14144
578	578	"Ben Ghasna"	"Ben Ghasna"	24	"Righas"	136	"Oulad Moussa"	"au milieu des arbres"		23																																														1																								2.704259	36.176117
579	579	"El Homr"	"El Homr"	24	"Righas"	136	"Oulad Moussa"	"près des gourbis"		22																1	1																																																					2.710552	36.151573
580	580	"Sidi Ghdelth"	"Sidi Ghdelth"	24	"Righas"	92	"Oulad Messaoud"	"au milieu d'arbres (Betmaya)"		27							1																																							1																								2.6751	36.208454
581	581	"Louzet"	"Louzet"	24	"Righas"	94	"Oulad Ben Aïssa"	"près d'amandiers"		50																																					1																																	2.712175	36.079507
582	582	"Gouba"	"Gouba"	24	"Righas"	94	"Oulad Ben Aïssa"	"au milieu des gourbis"		10																1	1																																																					2.712509	36.096293
583	583	"Mehta el Adjer"	"Mehta el Adjer"	24	"Righas"	96	"Oulad Bou Achera"	"dans la plaine au pied d'une montagne"		15													1																																				1																1					2.70569	36.08406
584	584	"Gran Aissa"	"Gran Aissa"	24	"Righas"	96	"Oulad Bou Achera"	"près d'un jardin"		14																			1																																																			2.682325	36.093794
585	585	"Goubab"	"Goubab"	24	"Righas"	137	"El Ababda/El Kouard"	"près d'un marabout Si Mohammed el Abadi"		17							1																		1																																													2.685575	36.157112
586	586	"Dflaya"	"Dflaya"	24	"Righas"	137	"El Ababda/El Kouard"	"près d'un bouquet de chêne verts."		28																																											1																											2.667388	36.162946
587	587	"Aïn ben Aissa"	"Aïn ben Aissa"	24	"Righas"	93	"Oulad Sidi Ahmed ben Youssef"	"près des amandiers"		14																																					1																									1								2.58378	36.151811
588	588	"Mezouedj"	"Mezouedj"	24	"Righas"	95	"Ouanid"	"près des gourbis"		31																1	1																																																					2.646038	36.114117
589	589	"Amouda (other)"	"Amouda (other)"	13	"Douaïres"	52	"Oulad Raab nal el Oued"			154																																																																			3.003874	35.956081	"B"	3.003874	35.956081
590	590	"Saïb Maboub/Rheghba"	"Saïb Maboub/Rheghba"	13	"Douaïres"	52	"Oulad Raab nal el Oued"	"ouest ferme, nord chemin, est rivière, sud rivière"		260																		1													1																													1										2.962963	35.941399
591	591	"Argoub"	"Argoub"	13	"Douaïres"	53	"Oulad Raab nal el Regeb"	"ouest ravin, nord montagne, est ravin, sud rocher"		45																																																	1					1					1											2.930895	35.908916
592	592	"El Djenen"	"El Djenen"	15	"Oulad Deid"	56	"Oulad Asiz"	"ouest lieu appelé Enza Seras, nord rocher gris, est lieu appelé Enzelet Ethomes, sud rocher Dra el Djelali"		113																				1																													1					1																3.000591	36.048294
593	593	"Mechta ben el Bekouab"	"Mechta ben el Bekouab"	13	"Douaïres"	51	"El Alalma"	"ouest ravin, nord rocher, sud rocher"		16																																																						1					1											2.97983	36.005731
594	594	"Gherba"	"Gherba"	13	"Douaïres"	51	"El Alalma"	"(Lekhal ben el Oussif) ouest gourbi, nord rocher, est chemin, sud marabout"		110																1									1						1																							1																2.979393	36.025604
595	595	"Bou Ghobsa"	"Bou Ghobsa"	13	"Douaïres"	51	"El Alalma"	"ouest rocher, nord grotte appelé la Grotte de Fer"		40																																																						1			1													3.003923	36.004467
596	596	"Charounïa ala Ras el Oued"	"Charounïa ala Ras el Oued"	13	"Douaïres"	50	"Titry"	"ouest coudia (petit montagne), nord petit mamelon, sud la plaine"		77																																																	1	1								1		1					1					3.060208	35.924542
597	597	"Amet Fiza"	"Amet Fiza"	13	"Douaïres"	50	"Titry"	"(El Nidjagi ben Bel Abbas), ouest rivière, nord mamelon, sud rivière"		62																																																		1										1										3.005552	35.930369
598	598	"Srif"	"Srif"	13	"Douaïres"	50	"Titry"	"Miloud ben di Mohamed, ouest chemin, est rivière, sud le marché du mardi"		30																											1				1																													1										3.065439	35.930302
599	599	"Kâla"	"Kâla"	13	"Douaïres"	50	"Titry"	"Ben Jussef ben il Ghoudja, ouest rivière, nord rivière, est terre du Beylek, sud chemin"		105														1																	1																				1	1								1										3.059228	35.927598
600	600	"Sba"	"Sba"	14	"Oulad Hedim"	54	"Oulad Hedim"	"Oulad Bou Douma, ouest rocher, nord lieu appelé Sba, est Bled Kouider, sud chemin"		24																															1																							1																2.960346	36.036531
601	601	"El Maïzmia"	"El Maïzmia"	14	"Oulad Hedim"	54	"Oulad Hedim"	"Hadj Kouider, ouest rocher, nord rocher, est ravin, sud ravin et source"		46																																																						1					1			1								2.947128	36.028884
602	602	"Ce Gada"	"Ce Gada"	18	"Deimat"	65	"Deimat"	"(Oulad Bou Nadji) ouest lieu appelé Tinia, nord El Kaala. Sud Bled Chems"		60																																																			1																			3.115184	35.695591
603	603	"Ras Torba"	"Ras Torba"	18	"Deimat"	65	"Deimat"	"ouest chemin, nord petite montagne, est lieu appelé Reneb. Sud lieu appelé Zoudj Adger"		135																															1																		1	1																				3.071737	35.702812
604	604	"Elmbdoua"	"Elmbdoua"	16	"Souary"	60	"Oulad Jacoub"	"ouest rocher, nord rocher de figuier, est ravin, sud chemin"		100																															1								1															1					1											3.116068	35.785266
605	605	"Kerkoud"	"Kerkoud"	16	"Souary"	61	"Oulad Deid"	"(Mohamed bn Chamdan) ouest jardin, nord chemin, est jardin, sud lieu appelé Kala"		120																			1												1																				1	1																		3.123501	35.753856
606	606	"Gaadet Saffrani"	"Gaadet Saffrani"	19	"Abides"	138	"El Ahkoum"	"entre une rivière et une maison près d'un chemin"		97															1																1																				1	1								1										2.863245	36.014286
607	607	"El Kherba"	"El Kherba"	19	"Abides"	138	"El Ahkoum"	"entre un chemin et Azelr el Hannech"		62																															1	1																																						2.89376	36.014146
608	608	"Chaabet Gatan"	"Chaabet Gatan"	19	"Abides"	138	"El Ahkoum"	"entre Moul el Kel Labiad et un chemin"		20																															1																												1											2.885017	36.019235
609	609	"Dera Larfar"	"Dera Larfar"	19	"Abides"	138	"El Ahkoum"	"entre Gaadet el Medhal fed bou Maiza et une rivière"		28																																																		1	1	1								1										2.870075	36.020321
610	610	"El Haoud"	"El Haoud"	19	"Abides"	139	"El Kessentiya"	"entre un djema et Moul el Guebour"	"Assuming Moul/Moulay/Sidi."	44										1																																																												2.918995	35.981595
611	611	"Ramel"	"Ramel"	19	"Abides"	139	"El Kessentiya"	"entre Gaadet el Guedim et Aïn el Rahla"		42																																																			1	1										1								2.907731	35.978967
612	612	"Ghar Mechal"	"Ghar Mechal"	19	"Abides"	139	"El Kessentiya"	"entre un kef et un bir"		37																					1																															1																		2.941789	35.996283
614	614	"Gaadet Lahmar"	"Gaadet Lahmar"	19	"Abides"	139	"El Kessentiya"	"entre Sid el Kebir et Chaibet el An"		33							1																																												1	1							1											2.898499	35.996348
615	615	"El Henia"	"El Henia"	19	"Abides"	139	"El Kessentiya"	"près du jardin Ali Bel Amry"		50																			1																																																			2.947938	35.992232
616	616	"El Mahjadmenid"	"El Mahjadmenid"	19	"Abides"	139	"El Kessentiya"	"entre Gaadet el Beda et Gaadet el Kibira"		34																																																			1	1																		2.898862	35.993998
617	617	"Hafrer el Khoudja"	"Hafrer el Khoudja"	19	"Abides"	69	"El Ghereba"	"entre Aïn el Kebrita et Sed Khouribas"		40																																																														1								2.938621	36.021783
618	618	"Chinoi"	"Chinoi"	19	"Abides"	69	"El Ghereba"	"entre Ghad Deba et Dera el Djema"		94										1																																								1	1	1																		2.921686	36.021306
619	619	"El Gaada el Bida"	"El Gaada el Bida"	19	"Abides"	70	"Semela"	"entre un chemin et Chaabet Arid"		37																															1																				1	1							1											2.899074	35.960586
620	620	"Gaadet el Arrar"	"Gaadet el Arrar"	19	"Abides"	70	"Oulad Senen"	"entre Mechta Djedid et Dera Madouar"		90													1																																					1	1	1																		2.879156	35.989936
621	621	"El Kherba"	"El Kherba"	19	"Abides"	66	"Labras"	"entre un chemin et un ruisseau"		26																															1	1																												1										2.850487	36.131688
622	622	"Aïn Ali"	"Aïn Ali"	19	"Abides"	66	"Labras"	"entre Sid Mara et Chaabet Khamès"		48							1																																																				1			1								2.899488	36.142277
623	623	"Aïn Ferkous"	"Aïn Ferkous"	19	"Abides"	66	"Labras"	"entre Dera Aaga et Aïn Ferkous"		42																																																		1												1								2.882792	36.074657
624	624	"Gaadet Si Couider"	"Gaadet Si Couider"	19	"Abides"	66	"Labras"	"entre un seguiza et une noueder"		63																						1																													1	1																		2.895512	36.152576
625	625	"Boutouil"	"Boutouil"	19	"Abides"	66	"Labras"	"entre un chemin et Gaadet Saada"		68																															1																				1	1																		2.929728	36.09231
626	626	"Aouza"	"Aouza"	19	"Abides"	66	"Labras"	"entre un chemin et Oued el Fridja"		100																															1																													1										2.950827	36.060207
627	627	"Aïn el Karam"	"Aïn el Karam"	19	"Abides"	66	"Labras"	"entre Chaabet Aïn Karma et el Gaada"		30																																																												1		1								2.879914	36.077601
628	628	"El Djema"	"El Djema"	19	"Abides"	66	"Labras"	"entre Chaabet Souni et un chemin"		100										1																					1																												1											2.964238	36.083206
629	629	"Bel Karma"	"Bel Karma"	19	"Abides"	66	"Labras"	"entre un jardin et Chaabet Sesi"		70																			1																																								1											2.920702	36.08626
630	630	"Mechter Oulad Saleh"	"Mechter Oulad Saleh"	19	"Abides"	66	"Labras"	"entre Chaabet Berbissi et Taga"		13													1																																					1																				2.899654	36.097558
631	631	"Loualedj"	"Loualedj"	19	"Abides"	66	"Labras"	"entre des jardins"		92																			1																																																			2.914771	36.092843
632	632	"Aïn el Beda"	"Aïn el Beda"	19	"Abides"	66	"Labras"	"entre un ruisseau et Enzeur el Khezary"		47																																																													1	1								2.905222	36.122507
633	633	"Bel Souza"	"Bel Souza"	19	"Abides"	67	"Chorfa"	"entre el Mardja Dera Touz et Dera Labiad"		34																																																		1																				2.849012	36.113867
634	634	"Aïn el Ghaba"	"Aïn el Ghaba"	19	"Abides"	67	"Chorfa"	"entre Dera Aaga et la grande route de Midéah"		20																														1																				1												1								2.858362	36.12337
635	635	"Teniet Khalouf"	"Teniet Khalouf"	20	"Beni Hassen"	72	"Mezeïa"	"entre une fontaine et un figuier"		80																																							1														1										1							2.814968	35.994612
636	636	"Daiyra"	"Daiyra"	20	"Beni Hassen"	77	"Chemama"	"entre des jardins et Dera Taga"		87																			1																															1														1						2.848225	36.055969
637	637	"El Ari"	"El Ari"	20	"Beni Hassen"	76	"Beni Gheïar"	"entre Dera Taga et El Kherba"		96																																1																		1																				2.766449	36.033967
640	640	"Lera"	"Lera"	20	"Beni Hassen"	73	"Oulad Mennaa"	"entre Dera el Fed et un jardin"		45																			1																															1																				2.706223	36.064668
641	641	"El Ouseïria"	"El Ouseïria"	20	"Beni Hassen"	73	"Oulad Mennaa"	"près d'un mechta"		91													1																																																									2.711452	36.022728
642	642	"Teniet Emdoun"	"Teniet Emdoun"	20	"Beni Hassen"	73	"Oulad Mennaa"	"entre Aïn el Demaïr et Dera el Kebir"		22																																																		1			1									1								2.716017	36.059447
643	643	"Bethaaleb"	"Bethaaleb"	20	"Beni Hassen"	75	"Oulad Seid"	"près de Mechta AbdelKader ben Amara"		62													1																																																									2.782771	36.086392
644	644	"Teguia"	"Teguia"	20	"Beni Hassen"	74	"Oulad Omra"	"entre un ruisseau et un jardin"		66																			1																																									1										2.831879	36.092601
646	646	"El Gada"	"El Gada"	11	"Rebaïa"	45	"Oulad Atta"	"Est prairie de Bou Sadem, sud rivière, nord la plaine, ouest idem"		19																																																			1	1								1					1	1				3.085725	36.018225
648	648	"Fi el Oued And el Bir el Turci"	"Fi el Oued And el Bir el Turci"	11	"Rebaïa"	45	"Oulad Atta"	"au milieu de la ferme de Couïder ben Sakri"		15																		1			1																																					1		1										3.13729	36.039154
649	649	"Regeda"	"Regeda"	11	"Rebaïa"	45	"Oulad Atta"	"(Mohamed ben Abderahman) entre la terre de l'Oued Chaïr (Si Amed ben Jussed et Oulad Deir)"		16																																																																						3.083477	36.048106
650	650	"Dar el Beida"	"Dar el Beida"	11	"Rebaïa"	46	"Oulad Si Mohamed"	"près du gourbi entouré de broussailles"		10															1	1																															1																							3.178316	36.006687
651	651	"Dra el Hadj"	"Dra el Hadj"	11	"Rebaïa"	43	"Oulad Saal"	"au milieu de la broussailles"		49																																															1			1																				3.129134	35.993924
652	652	"Fi Chabet Saken"	"Fi Chabet Saken"	11	"Rebaïa"	42	"Oulad Hamaïd"	"au sud du ravin, nord un grand ravin"		189																																																											1											3.094411	35.967912
653	653	"Fed Aroth"	"Fed Aroth"	11	"Rebaïa"	42	"Oulad Hamaïd"	"est un petit mamelon, au sud une petite rivière, à l'est une maison couverte en terre, au nord broussailles"		55															1																																1			1										1										3.065187	35.951129
654	654	"Fed Taïba"	"Fed Taïba"	11	"Rebaïa"	42	"Oulad Hamaïd"	"à l'ouest rivière, sud un rocher de plâtre, nord ravin"		26																																																						1					1	1										3.039157	35.951253
655	655	"Dra Labiod"	"Dra Labiod"	11	"Rebaïa"	42	"Oulad Hamaïd"	"près des arbres, au sud ravin, au nord ravin, près d'un source"		61																																														1				1									1			1								3.074066	35.993161
656	656	"Dra Lameur"	"Dra Lameur"	11	"Rebaïa"	42	"Oulad Hamaïd"	"près d'un ravin et des gourbis"		18																1	1																																	1									1											3.076918	35.958029
657	657	"Dra Lamer"	"Dra Lamer"	12	"Sidi Ahmed ben Joucef"	48	"El Gouia"	"ouest ravin, est ravin, nord grands arbres"		27																																														1				1									1											3.04808	36.097548
658	658	"Feth Attager"	"Feth Attager"	12	"Sidi Ahmed ben Joucef"	48	"El Gouia"	"ouest rivière, est broussailles, nord gourbi, sud gourbi du Cheikh"		30					1											1	1																														1													1										3.055232	36.106515
659	659	"Merraoun"	"Merraoun"	5	"Titery"	18	"Oulad Debeb"	"près d'un rocher"		82																																																						1																3.053104	35.859438
660	660	"El Gaada"	"El Gaada"	6	"Oulad Alens"	21	"Oulad Chenef"	"sur un mamelon"		1																																																		1	1	1																		3.093007	35.918069
661	661	"El Djebessa"	"El Djebessa"	6	"Oulad Alens"	21	"Oulad Chenef"	"près d'une rivière"		30																																																												1										3.138173	35.937036
662	662	"Tagrea"	"Tagrea"	6	"Oulad Alens"	21	"Oulad Chenef"	"près du Kef Lakhdar"		100																																																				1															3.287056	35.918706	"B"	3.287056	35.918706
663	663	"Belghida"	"Belghida"	6	"Oulad Alens"	22	"Oulad Abdeloucheb"	"près d'une rivière"		82																																																												1										3.111577	35.852962
664	664	"El Djema"	"El Djema"	6	"Oulad Alens"	22	"Oulad Abdeloucheb"	"près d'un peuplier"		13										1																																			1																									3.193956	35.860096
665	665	"Ramlia"	"Ramlia"	6	"Oulad Alens"	22	"Oulad Abdeloucheb"	"entre des jardins et des arbres"		44																			1																											1																								3.204463	35.861219
666	666	"Bel Kemel"	"Bel Kemel"	6	"Oulad Alens"	22	"Oulad Abdeloucheb"	"sur une plaine seule"		2																																																																	1					3.205434	35.833705
667	667	"Aïn Daffra"	"Aïn Daffra"	6	"Oulad Alens"	22	"Oulad Abdeloucheb"	"près d'un mechta"		42													1																																																	1								3.181703	35.871746
668	668	"Nehar"	"Nehar"	6	"Oulad Alens"	22	"Oulad Abdeloucheb"	"entre 2 rochers"		50																																																						1																3.133772	35.828346
669	669	"El Kheneg"	"El Kheneg"	6	"Oulad Alens"	25	"El Maaguif"	"entre une rivière et un Kef"		56																																																				1							1	1										3.20965	35.818874
670	670	"Guelh el Hadja"	"Guelh el Hadja"	6	"Oulad Alens"	24	"Serarta"	"entre 2 ruisseaux"		30																																																												1										3.169161	35.883321
671	671	"?Glouib Ghalous"	"?Glouib Ghalous"	6	"Oulad Alens"	24	"Serarta"	"dans un mechta"		24													1																																																									3.145965	35.889035
672	672	"El Gaada"	"El Gaada"	6	"Oulad Alens"	24	"Serarta"	"près d'une fontaine"		27																																																			1	1											1							3.161701	35.882323
673	673	"Tirghan Doghera"	"Tirghan Doghera"	6	"Oulad Alens"	24	"Serarta"	"dans un mechta"		17													1																																																									3.19524	35.90902
674	674	"El Meniten"	"El Meniten"	6	"Oulad Alens"	24	"Serarta"	"près d'une fontaine"		15																																																															1							3.152354	35.90688
675	675	"El Gorfa"	"El Gorfa"	6	"Oulad Alens"	23	"Oulad Yahya"	"près d'un mechta"		24													1																																																									3.192904	35.964942
676	676	"Aïn Ghanem"	"Aïn Ghanem"	6	"Oulad Alens"	26	"Oulad Sidi Omer"	"au bas d'un rocher, près d'une fontaine"		30																																																						1								1	1							3.160469	35.781718
677	677	"El Haouch"	"El Haouch"	6	"Oulad Alens"	29	"Taaziza"	"près d'une maison"		52												1			1																																																							3.344466	35.883429
678	678	"Bou Kerbed"	"Bou Kerbed"	6	"Oulad Alens"	29	"Taaziza"	"sur une plaine, sur un rocher"		32																																																						1											1					3.318708	35.947072
679	679	"El Guelib"	"El Guelib"	6	"Oulad Alens"	29	"Taaziza"	"entre 2 rivières"		1																																																												1										3.323881	35.917558
680	680	"El Maghrella"	"El Maghrella"	6	"Oulad Alens"	29	"Taaziza"	"sur une plaine"		1																																																																	1					3.30911	35.893761
681	681	"Gaadet Jerduda"	"Gaadet Jerduda"	6	"Oulad Alens"	29	"Taaziza"	"sur un mamelon"		68																																																		1	1	1																		3.291738	35.840603
682	682	"Kom el Kheba"	"Kom el Kheba"	6	"Oulad Alens"	29	"Taaziza"	"près d'un ruisseau"		12																																																												1										3.308687	35.86204
683	683	"Kom el Kheba (extra)"	"Kom el Kheba"	6	"Oulad Alens"	29	"Taaziza"	"sur une plaine"		1																																																																	1					3.230884	35.816258
684	684	"Achir"	"Achir"	6	"Oulad Alens"	29	"Taaziza"	"près d'une montagne"		62																																																	1																					3.332624	35.876049
685	685	"Ahniet"	"Ahniet"	6	"Oulad Alens"	29	"Taaziza"	"sur une plaine"		1																																																																	1					3.248023	35.869547
686	686	"Kef el Nagru"	"Kef el Nagru"	6	"Oulad Alens"	29	"Taaziza"	"au bas d'un Kef"		11																																																				1																		3.287714	35.85642
687	687	"El Djenen"	"El Djenen"	6	"Oulad Alens"	29	"Taaziza"	"près d'un jardin"		44																			1																																																			3.230276	35.819192
688	688	"El Mardja Hareham"	"El Mardja Hareham"	6	"Oulad Alens"	29	"Taaziza"	"près d'un ravin"		1																																																											1											3.303719	35.8707
689	689	"El Karma"	"El Karma"	6	"Oulad Alens"	29	"Taaziza"	"entre 2 ruisseaux"		44																																																													1									3.231736	35.847629
690	690	"Dafier Auda"	"Dafier Auda"	6	"Oulad Alens"	31	"El Adjema"	"entre un rocher et un ravin"		90																																																						1					1											3.322143	35.846387
691	691	"Chif Kanoun"	"Chif Kanoun"	6	"Oulad Alens"	31	"El Adjema"	"près d'un rocher"		94																																																						1																3.293657	35.825843
692	692	"Tiriez"	"Tiriez"	6	"Oulad Alens"	31	"El Adjema"	"entre un rocher et un ruisseau"		57																																																						1							1									3.357641	35.84391
693	693	"Sid ben Rahman"	"Sid ben Rahman"	6	"Oulad Alens"	31	"El Adjema"	"entre un rocher et un ruisseau"		21							1																																															1								1								3.308655	35.821391
694	694	"Aïn el Kahla"	"Aïn el Kahla"	6	"Oulad Alens"	31	"El Adjema"	"près d'une fontaine"		1																																																														1	1							3.319969	35.841376
695	695	"El Mechta"	"El Mechta"	6	"Oulad Alens"	31	"El Adjema"	"près d'une fontaine"		1													1																																																	1	1							3.348066	35.819932
696	696	"Zoudj Maadja"	"Zoudj Maadja"	6	"Oulad Alens"	28	"El Belida"	"près d'un rocher"		56																																																						1																3.234233	35.890756
697	697	"Bekhour"	"Bekhour"	6	"Oulad Alens"	28	"El Belida"	"près d'une rivière"		1																																																												1										3.259761	35.893937
698	698	"Louza"	"Louza"	6	"Oulad Alens"	28	"El Belida"	"entre 2 rivières, près d'un rocher"		2																																																						1						1										3.266945	35.925679
699	699	"Derias"	"Derias"	6	"Oulad Alens"	28	"El Belida"	"entre 2 peupliers"		11																																													1																									3.272104	35.90307
700	700	"Chebour"	"Chebour"	6	"Oulad Alens"	28	"El Belida"	"sur une plaine"		2																																																																	1					3.249941	35.916146
701	701	"Chaouch"	"Chaouch"	6	"Oulad Alens"	28	"å"	"près d'un matmar"		4						1																	1																																															3.294265	35.928266
702	702	"El l'Emhallah"	"El l'Emhallah"	6	"Oulad Alens"	28	"El Belida"	"entre des mechtas"		29													1																																																									3.222646	35.905497
703	703	"El Merdja"	"El Merdja"	6	"Oulad Alens"	28	"El Belida"	"près d'une rivière"		24																																																												1					1					3.243268	35.891532
704	704	"El Argoub"	"El Argoub"	6	"Oulad Alens"	28	"El Belida"	"sur une plaine"		2																																																																	1					3.27073	35.901729
705	705	"Dïaha"	"Dïaha"	6	"Oulad Alens"	28	"El Belida"	"sur la plaine"		2																																																																	1					3.204833	35.907741
706	706	"El Berda"	"El Berda"	6	"Oulad Alens"	28	"El Belida"	"entre une rivière et un rocher"		111																																																						1						1										3.283086	35.918845
707	707	"El Djenien"	"El Djenien"	6	"Oulad Alens"	30	"Oulad di Khalif"	"entre 2 ravins, près d'un mechta"		60													1																																														1											3.305578	35.836996
708	708	"El Moukeni"	"El Moukeni"	6	"Oulad Alens"	33	"Oulad Belheites"	"entre 2 jardins"		67																			1																																																			3.337328	35.792374
709	709	"Gaadet bel Keïr"	"Gaadet bel Keïr"	6	"Oulad Alens"	33	"Oulad Belheites"	"entre 2 rochers près d'un mechta"		95													1																																									1																3.376168	35.772519
710	710	"El Halloufa"	"El Halloufa"	6	"Oulad Alens"	33	"Oulad Belheites"	"sur une plaine"		3																																																																	1					3.365625	35.801265
711	711	"El Kheneg"	"El Kheneg"	6	"Oulad Alens"	33	"Oulad Belheites"	"sur une plaine"		1																																																											1						1					3.325836	35.791946
712	712	"El Kharbouchïa"	"El Kharbouchïa"	6	"Oulad Alens"	33	"Oulad Belheites"	"près d'un chemin"		6																															1																																							3.377766	35.768008
713	713	"Azeler el Grad"	"Azeler el Grad"	6	"Oulad Alens"	27	"Oulad Sidi Amer"	"près d'une rivière"		200																																																												1										3.169809	35.708589
714	714	"Aïn el Karma"	"Aïn el Karma"	6	"Oulad Alens"	27	"Oulad Sidi Amer"	"entre 2 ruisseaux au bas d'une montagne"		45																																																	1	1											1	1								3.214938	35.730516
715	715	"Doemid"	"Doemid"	6	"Oulad Alens"	27	"Oulad Sidi Amer"	"entre 2 rivières"		200																																																												1										3.217114	35.800304
716	716	"Gaadet Lamam"	"Gaadet Lamam"	6	"Oulad Alens"	27	"Oulad Sidi Amer"	"dans un mechta"		9													1																																																									3.129429	35.762728
717	717	"Sed Hadjama"	"Sed Hadjama"	7	"Oulad Mokhtar"	11	"Oulad Mokhtar"	"sur la plaine"		578																																	1																													1								3.209448	35.558089
719	719	"El Koudia"	"El Koudia"	6	"Oulad Alens"	32	"Oulad Si Mechared"	"près d'une ferme"		1																		1																																1																				3.237035	35.958226
720	720	"Aïn Gouker"	"Aïn Gouker"	6	"Oulad Alens"	32	"Oulad Si Mechared"	"entre 2 ruisseaux, entre 2 chemins"		41																															1																														1	1								3.221681	35.948766
721	721	"Ben Etratan"	"Ben Etratan"	25	"Mouzaïa"	107	"Oulad Si Ameur"	"le gourbi du cheikh en-dessous ravine"		7																1																																											1											2.693968	36.446007
722	722	"Mechta el Hadj Mohamed ben Brahim"	"Mechta el Hadj Mohamed ben Brahim"	25	"Mouzaïa"	107	"Oulad Si Ameur"	"est rivière, ouest ruisseau, au-dessus olivier sauvage, en-dessous olivier sauvage"		13													1																									1																						1	1									2.67328	36.443077
723	723	"Kerboussa"	"Kerboussa"	30	"Oulad Sidi Nadji"	55	"Oulad Sidi Nadji"	"ouest Seghedi ben Imbarek, nord montagne, est ferme, sud rocher"		63																		1																															1					1																3.026214	36.171464
724	724	"Ledja el Beda"	"Ledja el Beda"	30	"Oulad Sidi Nadji"	55	"Oulad Sidi Nadji"	"(Cadi Mohamed ben Lïeb) ouest Aïn Tolba, nord rocher, est chemin, sud rocher"		65								1																							1																							1								1								2.96789	36.150534
725	725	"Selka"	"Selka"	15	"Oulad Deid"	56	"Oulad Asiz"	"ouest le mamelon Ranfer, nord Bled Salem, est Bled el ?had Saala. Sud Grotte des ?Nims"		25																																																		1							1													2.964759	36.063577
726	726	"El Aragile"	"El Aragile"	15	"Oulad Deid"	56	"Oulad Asiz"	"ouest ravin Az Goub, nord petite montagne, est ravin, sud gourbi de Kara Assen"		89																1																																	1										1											3.038353	36.074413
728	728	"Omar el Bit"	"Omar el Bit"	15	"Oulad Deid"	56	"Oulad Asiz"	"ouest Bir el Maïs, nord montagne, est rocher, sud Dra Labiod"		97															1						1																												1					1																3.011076	36.077616
729	729	"Mecheta"	"Mecheta"	15	"Oulad Deid"	57	"El Achaffa"	"Bled Amer ben Zreter, ouest ravin, nord montagne, est rocher, sud petite montagne"		150													1																																				1					1					1											3.031988	36.045741
730	730	"Cheubet Lefail"	"Cheubet Lefail"	15	"Oulad Deid"	58	"Zekmota"	"ouest rivière, nord ravin, est rocher, sud jardin"		60																			1																																			1						1										2.989317	36.103189
731	731	"Le Gada"	"Le Gada"	15	"Oulad Deid"	58	"Zekmota"	"Bourega ben Drouyäa, nord rocher, ouest Bled Kouider, est Bled Bourega, sud jardin"		150																			1																																			1																3.018892	36.129754
732	732	"Gadet el Bir"	"Gadet el Bir"	15	"Oulad Deid"	58	"Zekmota"	"(Mohamed ben Bouraga), ouest rocher, nord petite montagne, est mamelon, sud gourbi"		65																1																																	1	1				1																3.010097	36.107911
